FID,wcode,practicename,noofbranches,ppclustercode,ppclustername,uprn,usrn,easting,northing,latitude,longitude,lhb_code,lhbwcode,lhb_name_cy,lhb_name_en,lacode,msoa21cd,edcode,lsoa21cd,countrycode,country_cy,country_en,fid,id,geom
gpmainsites_ogl.1,W00005,Aber Medical Centre,2,CC605,Caerphilly South,43008482,47503520,312120,189325,51.5958917,-3.2701071,7A6,W11000028,Bwrdd Iechyd Prifysgol Aneurin Bevan,Aneurin Bevan University Health Board,W06000018,W02000307,W05001648,W01001331,W92000004,Cymru,Wales,1,1,MULTIPOINT ((312120 189325))
gpmainsites_ogl.2,W00007,Caritas Surgery,1,CC113,North & West Wrexham,10070388343,46911492,328687,351108,53.0524679,-3.0653491,7A1,W11000023,Bwrdd Iechyd Prifysgol Betsi Cadwaladr,Betsi Cadwaladr University Health Board,W06000006,W02000083,W05001726,W01000362,W92000004,Cymru,Wales,5,2,MULTIPOINT ((328687 351108))
gpmainsites_ogl.3,W00065,Uwchaled Medical Practice,0,CC105,Conwy West,10024339716,46605805,295418,348623,53.0246586,-3.5607061,7A1,W11000023,Bwrdd Iechyd Prifysgol Betsi Cadwaladr,Betsi Cadwaladr University Health Board,W06000003,W02000040,W05001431,W01000190,W92000004,Cymru,Wales,8,3,MULTIPOINT ((295418 348623))
gpmainsites_ogl.4,W00067,Argyle Medical Group,1,CC206,South Pembrokeshire,2.00002E+11,47000994,197119.32,203341.37,51.6920785,-4.9368142,7A2,W11000025,Bwrdd Iechyd Prifysgol Hywel Dda,Hywel Dda University Health Board,W06000009,W02000138,W05001476,W01000603,W92000004,Cymru,Wales,9,4,MULTIPOINT ((197119.32 203341.37))
gpmainsites_ogl.5,W00076,Bradley's Practice,1,CC110,South Flintshire,10090465658,46800904,327906.64,364526.11,53.1729569,-3.080007,7A1,W11000023,Bwrdd Iechyd Prifysgol Betsi Cadwaladr,Betsi Cadwaladr University Health Board,W06000005,W02000069,W05001578,W01000264,W92000004,Cymru,Wales,12,5,MULTIPOINT ((327906.64 364526.11))
gpmainsites_ogl.6,W00100,Cardiff And Vale Health Inclusion Service,0,,,1.00101E+11,5804612,319352,176878,51.4850817,-3.1628661,7A4,W11000029,Bwrdd Iechyd Prifysgol Caerdydd a'r Fro,Cardiff and Vale University Health Board,W06000015,W02000402,W05001270,W01001696,W92000004,Cymru,Wales,15,6,MULTIPOINT ((319352 176878))
gpmainsites_ogl.7,W00133,Ashgrove Medical Centre,0,CC202,Llanelli,10009170650,47206490,250604,200627,51.6844789,-4.1624966,7A2,W11000025,Bwrdd Iechyd Prifysgol Hywel Dda,Hywel Dda University Health Board,W06000010,W02000164,W05001190,W01000653,W92000004,Cymru,Wales,16,7,MULTIPOINT ((250604 200627))
gpmainsites_ogl.8,W00134,The Llwynhendy Health Centre,0,CC202,Llanelli,2.00003E+11,47205181,253324,200256,51.6818627,-4.1230234,7A2,W11000025,Bwrdd Iechyd Prifysgol Hywel Dda,Hywel Dda University Health Board,W06000010,W02000166,W05001215,W01000708,W92000004,Cymru,Wales,17,8,MULTIPOINT ((253324 200256))
gpmainsites_ogl.10,W00142,Amman Tawe Partnership,2,CC201,Amman Gwendraeth,10009186269,47706317,270114,212124,51.7926499,-3.8847433,7A3,W11000031,Bwrdd Iechyd Prifysgol Bae Abertawe,Swansea Bay University Health Board,W06000012,W02000417,W05001700,W01000928,W92000004,Cymru,Wales,19,9,MULTIPOINT ((270114 212124))
gpmainsites_ogl.11,W00143,Amman Tawe Partnership,2,CC311,Upper Valleys,1.00101E+11,47718307,274694,212722,51.7990693,-3.8185853,7A3,W11000031,Bwrdd Iechyd Prifysgol Bae Abertawe,Swansea Bay University Health Board,W06000012,W02000417,W05001695,W01000919,W92000004,Cymru,Wales,22,10,MULTIPOINT ((274694 212722))
gpmainsites_ogl.12,W00144,Waterside Medical Practice,4,CC309,Neath,10023951613,47709332,273623,193292,51.624217,-3.8270576,7A3,W11000031,Bwrdd Iechyd Prifysgol Bae Abertawe,Swansea Bay University Health Board,W06000012,W02000211,W05001685,W01000897,W92000004,Cymru,Wales,25,11,MULTIPOINT ((273623 193292))
gpmainsites_ogl.13,W91002,Plas Meddyg Surgery,0,CC103,Central & South Denbighshire,2.00003E+11,46701157,312585,358446,53.116018,-3.3075057,7A1,W11000023,Bwrdd Iechyd Prifysgol Betsi Cadwaladr,Betsi Cadwaladr University Health Board,W06000004,W02000055,W05001356,W01000243,W92000004,Cymru,Wales,30,12,MULTIPOINT ((312585 358446))
gpmainsites_ogl.14,W91003,Clarence Medical Centre,1,CC111,North Denbighshire,2.00004E+11,46701294,300748,381081,53.3173405,-3.4913507,7A1,W11000023,Bwrdd Iechyd Prifysgol Betsi Cadwaladr,Betsi Cadwaladr University Health Board,W06000004,W02000045,W05001355,W01000240,W92000004,Cymru,Wales,31,13,MULTIPOINT ((300748 381081))
gpmainsites_ogl.15,W91004,Strathmore Medical Practice,0,CC114,Central Wrexham,1.00101E+11,46904076,333646,350969,53.0518587,-2.9913513,7A1,W11000023,Bwrdd Iechyd Prifysgol Betsi Cadwaladr,Betsi Cadwaladr University Health Board,W06000006,W02000426,W05001714,W01000393,W92000004,Cymru,Wales,33,14,MULTIPOINT ((333646 350969))
gpmainsites_ogl.16,W91005,Pendre Surgery,0,CC108,North West Flintshire,1.00101E+11,46800045,318845.57,375758.27,53.272593,-3.2183975,7A1,W11000023,Bwrdd Iechyd Prifysgol Betsi Cadwaladr,Betsi Cadwaladr University Health Board,W06000005,W02000060,W05001596,W01000304,W92000004,Cymru,Wales,34,15,MULTIPOINT ((318845.57 375758.27))
gpmainsites_ogl.17,W91006,Pen Y Maes Health Centre,0,CC113,North & West Wrexham,10070383634,46903987,331205.63,353782.48,53.0768361,-3.0283539,7A1,W11000023,Bwrdd Iechyd Prifysgol Betsi Cadwaladr,Betsi Cadwaladr University Health Board,W06000006,W02000081,W05001735,W01000378,W92000004,Cymru,Wales,35,16,MULTIPOINT ((331205.63 353782.48))
gpmainsites_ogl.18,W91007,Cadwgan Surgery,0,CC104,Conwy East,1.00101E+11,46601454,287128,378076,53.2876097,-3.694643,7A1,W11000023,Bwrdd Iechyd Prifysgol Betsi Cadwaladr,Betsi Cadwaladr University Health Board,W06000003,W02000035,W05001407,W01000126,W92000004,Cymru,Wales,37,17,MULTIPOINT ((287128 378076))
gpmainsites_ogl.19,W91009,Healthy Prestatyn Iach,4,CC111,North Denbighshire,1.00101E+11,46700908,306696,382875,53.3345437,-3.4026228,7A1,W11000023,Bwrdd Iechyd Prifysgol Betsi Cadwaladr,Betsi Cadwaladr University Health Board,W06000004,W02000043,W05001345,W01000216,W92000004,Cymru,Wales,38,18,MULTIPOINT ((306696 382875))
gpmainsites_ogl.20,W91010,Canolfan Iechyd Llangollen Health Centre,1,CC112,South Wrexham,10002231899,46700568,322057.64,342068.88,52.970303,-3.1620441,7A1,W11000023,Bwrdd Iechyd Prifysgol Betsi Cadwaladr,Betsi Cadwaladr University Health Board,W06000004,W02000057,W05001341,W01000209,W92000004,Cymru,Wales,43,19,MULTIPOINT ((322057.64 342068.88))
gpmainsites_ogl.21,W91013,Hope Family Medical Centre,0,CC110,South Flintshire,10093282071,46804247,331022.43,357711.58,53.1121253,-3.0319328,7A1,W11000023,Bwrdd Iechyd Prifysgol Betsi Cadwaladr,Betsi Cadwaladr University Health Board,W06000005,W02000077,W05001599,W01000308,W92000004,Cymru,Wales,46,20,MULTIPOINT ((331022.43 357711.58))
gpmainsites_ogl.22,W91014,Kinmel Bay Medical Centre,0,CC104,Conwy East,50000009500,46606093,298827,380438,53.3111989,-3.5199712,7A1,W11000023,Bwrdd Iechyd Prifysgol Betsi Cadwaladr,Betsi Cadwaladr University Health Board,W06000003,W02000031,W05001417,W01000149,W92000004,Cymru,Wales,47,21,MULTIPOINT ((298827 380438))
gpmainsites_ogl.23,W91015,The Stables Medical Practice,2,CC106,North East Flintshire,1.00101E+11,46801449,331759,365712,53.1841238,-3.0226379,7A1,W11000023,Bwrdd Iechyd Prifysgol Betsi Cadwaladr,Betsi Cadwaladr University Health Board,W06000005,W02000068,W05001594,W01000311,W92000004,Cymru,Wales,49,22,MULTIPOINT ((331759 365712))
gpmainsites_ogl.24,W91016,Bryn Darland Surgery,1,CC113,North & West Wrexham,2.00003E+11,46911410,328293,351235,53.0535565,-3.0712542,7A1,W11000023,Bwrdd Iechyd Prifysgol Betsi Cadwaladr,Betsi Cadwaladr University Health Board,W06000006,W02000083,W05001726,W01000364,W92000004,Cymru,Wales,52,23,MULTIPOINT ((328293 351235))
gpmainsites_ogl.25,W91017,Pendre Surgery,0,CC110,South Flintshire,1.00101E+11,46802352,323411.77,364073.09,53.1682568,-3.1471292,7A1,W11000023,Bwrdd Iechyd Prifysgol Betsi Cadwaladr,Betsi Cadwaladr University Health Board,W06000005,W02000073,W05001606,W01000318,W92000004,Cymru,Wales,54,24,MULTIPOINT ((323411.77 364073.09))
gpmainsites_ogl.26,W91018,Roseneath Medical Practice,0,CC110,South Flintshire,10090465656,46800904,327906.64,364526.11,53.1729569,-3.080007,7A1,W11000023,Bwrdd Iechyd Prifysgol Betsi Cadwaladr,Betsi Cadwaladr University Health Board,W06000005,W02000069,W05001578,W01000264,W92000004,Cymru,Wales,55,25,MULTIPOINT ((327906.64 364526.11))
gpmainsites_ogl.27,W91019,Gardden Road Surgery,1,CC112,South Wrexham,10070384912,46902621,329615,346258,53.0090008,-3.0504465,7A1,W11000023,Bwrdd Iechyd Prifysgol Betsi Cadwaladr,Betsi Cadwaladr University Health Board,W06000006,W02000092,W05001749,W01000405,W92000004,Cymru,Wales,57,26,MULTIPOINT ((329615 346258))
gpmainsites_ogl.28,W91021,Marches Medical Practice,1,CC106,North East Flintshire,1.00101E+11,46802994,333732.55,363588.84,53.1652915,-2.9926697,7A1,W11000023,Bwrdd Iechyd Prifysgol Betsi Cadwaladr,Betsi Cadwaladr University Health Board,W06000005,W02000072,W05001573,W01000255,W92000004,Cymru,Wales,62,27,MULTIPOINT ((333732.55 363588.84))
gpmainsites_ogl.29,W91022,Plas Y Bryn Medical Centre,0,CC114,Central Wrexham,2.00003E+11,46903250,333352.94,349974.63,53.042885,-2.9955164,7A1,W11000023,Bwrdd Iechyd Prifysgol Betsi Cadwaladr,Betsi Cadwaladr University Health Board,W06000006,W02000088,W05001747,W01000402,W92000004,Cymru,Wales,64,28,MULTIPOINT ((333352.94 349974.63))
gpmainsites_ogl.30,W91023,Pen-y-Bont Surgery,0,CC103,Central & South Denbighshire,2.00004E+11,46701208,303435,374312,53.2570116,-3.4489697,7A1,W11000023,Bwrdd Iechyd Prifysgol Betsi Cadwaladr,Betsi Cadwaladr University Health Board,W06000004,W02000051,W05001358,W01000246,W92000004,Cymru,Wales,65,29,MULTIPOINT ((303435 374312))
gpmainsites_ogl.31,W91024,Chirk Surgery,0,CC112,South Wrexham,10090399058,46910342,329173.75,337784.01,52.9327801,-3.0551637,7A1,W11000023,Bwrdd Iechyd Prifysgol Betsi Cadwaladr,Betsi Cadwaladr University Health Board,W06000006,W02000096,W05001725,W01000361,W92000004,Cymru,Wales,66,30,MULTIPOINT ((329173.75 337784.01))
gpmainsites_ogl.32,W91025,Alyn Family Doctors,1,CC113,North & West Wrexham,1.00101E+11,46903754,333249.03,356002.58,53.0970491,-2.998319,7A1,W11000023,Bwrdd Iechyd Prifysgol Betsi Cadwaladr,Betsi Cadwaladr University Health Board,W06000006,W02000424,W05001742,W01000390,W92000004,Cymru,Wales,69,31,MULTIPOINT ((333249.03 356002.58))
gpmainsites_ogl.33,W91026,Dee Valley Medical Practice,1,CC112,South Wrexham,10090398695,46903480,337317.55,341783.49,52.969743,-2.9347986,7A1,W11000023,Bwrdd Iechyd Prifysgol Betsi Cadwaladr,Betsi Cadwaladr University Health Board,W06000006,W02000095,W05001748,W01000404,W92000004,Cymru,Wales,72,32,MULTIPOINT ((337317.55 341783.49))
gpmainsites_ogl.34,W91027,Bronyffynnon Surgery,1,CC103,Central & South Denbighshire,2.00004E+11,46700126,305066.12,366117.37,53.1836675,-3.4220855,7A1,W11000023,Bwrdd Iechyd Prifysgol Betsi Cadwaladr,Betsi Cadwaladr University Health Board,W06000004,W02000052,W05001334,W01000199,W92000004,Cymru,Wales,74,33,MULTIPOINT ((305066.12 366117.37))
gpmainsites_ogl.35,W91028,Park House Surgery,1,CC111,North Denbighshire,1.001E+11,46700908,306790.55,382946.34,53.3352014,-3.4012244,7A1,W11000023,Bwrdd Iechyd Prifysgol Betsi Cadwaladr,Betsi Cadwaladr University Health Board,W06000004,W02000043,W05001345,W01000216,W92000004,Cymru,Wales,76,34,MULTIPOINT ((306790.55 382946.34))
gpmainsites_ogl.36,W91029,Bodowen Surgery,1,CC108,North West Flintshire,2.00003E+11,46803968,318895.38,375518.78,53.2704484,-3.2175896,7A1,W11000023,Bwrdd Iechyd Prifysgol Betsi Cadwaladr,Betsi Cadwaladr University Health Board,W06000005,W02000060,W05001596,W01000304,W92000004,Cymru,Wales,78,35,MULTIPOINT ((318895.38 375518.78))
gpmainsites_ogl.37,W91030,St Georges Crescent Surgery,0,CC114,Central Wrexham,1.00101E+11,46904483,333780,350255,53.0454581,-2.9892054,7A1,W11000023,Bwrdd Iechyd Prifysgol Betsi Cadwaladr,Betsi Cadwaladr University Health Board,W06000006,W02000089,W05001758,W01001931,W92000004,Cymru,Wales,80,36,MULTIPOINT ((333780 350255))
gpmainsites_ogl.39,W91032,Allt Goch Medical Centre,0,CC108,North West Flintshire,10013707112,46801122,324217.42,372762.28,53.2464633,-3.1371467,7A1,W11000023,Bwrdd Iechyd Prifysgol Betsi Cadwaladr,Betsi Cadwaladr University Health Board,W06000005,W02000061,W05001587,W01000288,W92000004,Cymru,Wales,82,37,MULTIPOINT ((324217.42 372762.28))
gpmainsites_ogl.40,W91033,Beech House Surgery,1,CC103,Central & South Denbighshire,2.00004E+11,46701256,305532.72,366318.52,53.1855582,-3.4151649,7A1,W11000023,Bwrdd Iechyd Prifysgol Betsi Cadwaladr,Betsi Cadwaladr University Health Board,W06000004,W02000052,W05001334,W01000194,W92000004,Cymru,Wales,83,38,MULTIPOINT ((305532.72 366318.52))
gpmainsites_ogl.41,W91034,The Clinic Surgery,0,CC103,Central & South Denbighshire,2.00003E+11,46700654,312893,358108,53.1130311,-3.3028133,7A1,W11000023,Bwrdd Iechyd Prifysgol Betsi Cadwaladr,Betsi Cadwaladr University Health Board,W06000004,W02000055,W05001356,W01000244,W92000004,Cymru,Wales,86,39,MULTIPOINT ((312893 358108))
gpmainsites_ogl.42,W91036,Shotton Lane Surgery,0,CC106,North East Flintshire,1.00101E+11,46801584,330855,368520,53.2092436,-3.0367714,7A1,W11000023,Bwrdd Iechyd Prifysgol Betsi Cadwaladr,Betsi Cadwaladr University Health Board,W06000005,W02000066,W05001612,W01000334,W92000004,Cymru,Wales,87,40,MULTIPOINT ((330855 368520))
gpmainsites_ogl.43,W91037,Pennant Surgery,0,CC108,North West Flintshire,10023846599,46805363,318714.39,375820.63,53.2731333,-3.2203801,7A1,W11000023,Bwrdd Iechyd Prifysgol Betsi Cadwaladr,Betsi Cadwaladr University Health Board,W06000005,W02000060,W05001596,W01000304,W92000004,Cymru,Wales,88,41,MULTIPOINT ((318714.39 375820.63))
gpmainsites_ogl.44,W91038,Gwrych Medical Centre,1,CC104,Conwy East,10023741498,46663979,293488,377989,53.2881458,-3.5992494,7A1,W11000023,Bwrdd Iechyd Prifysgol Betsi Cadwaladr,Betsi Cadwaladr University Health Board,W06000003,W02000036,W05001427,W01000179,W92000004,Cymru,Wales,91,42,MULTIPOINT ((293488 377989))
gpmainsites_ogl.45,W91039,Deeside Medical Centre,0,CC106,North East Flintshire,10013704515,46804647,330807,368793,53.2116909,-3.0375492,7A1,W11000023,Bwrdd Iechyd Prifysgol Betsi Cadwaladr,Betsi Cadwaladr University Health Board,W06000005,W02000066,W05001612,W01000334,W92000004,Cymru,Wales,94,43,MULTIPOINT ((330807 368793))
gpmainsites_ogl.46,W91040,The Quay Surgery,0,CC106,North East Flintshire,10023846988,46800416,330067.66,369128.65,53.2146105,-3.0486916,7A1,W11000023,Bwrdd Iechyd Prifysgol Betsi Cadwaladr,Betsi Cadwaladr University Health Board,W06000005,W02000065,W05001586,W01000283,W92000004,Cymru,Wales,95,44,MULTIPOINT ((330067.66 369128.65))
gpmainsites_ogl.47,W91042,Beechley Medical Centre,0,CC114,Central Wrexham,10023170581,46903240,333913.28,349672.38,53.0402381,-2.9870979,7A1,W11000023,Bwrdd Iechyd Prifysgol Betsi Cadwaladr,Betsi Cadwaladr University Health Board,W06000006,W02000089,W05001738,W01000382,W92000004,Cymru,Wales,97,45,MULTIPOINT ((333913.28 349672.38))
gpmainsites_ogl.48,W91043,Ruabon Medical Centre,0,CC112,South Wrexham,10070384084,46903520,330265.38,344021.22,52.9889825,-3.0402715,7A1,W11000023,Bwrdd Iechyd Prifysgol Betsi Cadwaladr,Betsi Cadwaladr University Health Board,W06000006,W02000093,W05001757,W01000420,W92000004,Cymru,Wales,100,46,MULTIPOINT ((330265.38 344021.22))
gpmainsites_ogl.49,W91044,Leeswood Surgery,0,CC110,South Flintshire,1.00101E+11,46800870,326971.89,360110.55,53.1331453,-3.0929801,7A1,W11000023,Bwrdd Iechyd Prifysgol Betsi Cadwaladr,Betsi Cadwaladr University Health Board,W06000005,W02000076,W05001600,W01000309,W92000004,Cymru,Wales,103,47,MULTIPOINT ((326971.89 360110.55))
gpmainsites_ogl.50,W91046,Eyton Place Surgery,0,CC108,North West Flintshire,10093282519,46801181,324262.65,373083.25,53.2493543,-3.1365455,7A1,W11000023,Bwrdd Iechyd Prifysgol Betsi Cadwaladr,Betsi Cadwaladr University Health Board,W06000005,W02000061,W05001588,W01000290,W92000004,Cymru,Wales,105,48,MULTIPOINT ((324262.65 373083.25))
gpmainsites_ogl.51,W91047,Corwen Family Practice,0,CC103,Central & South Denbighshire,2.00002E+11,46701721,307979.01,343575.05,52.9816048,-3.3720515,7A1,W11000023,Bwrdd Iechyd Prifysgol Betsi Cadwaladr,Betsi Cadwaladr University Health Board,W06000004,W02000056,W05001337,W01000193,W92000004,Cymru,Wales,107,49,MULTIPOINT ((307979.01 343575.05))
gpmainsites_ogl.52,W91048,West End Medical Centre,0,CC104,Conwy East,50000004904,46604448,284094,379489,53.2996494,-3.7406487,7A1,W11000023,Bwrdd Iechyd Prifysgol Betsi Cadwaladr,Betsi Cadwaladr University Health Board,W06000003,W02000034,W05001428,W01000183,W92000004,Cymru,Wales,108,50,MULTIPOINT ((284094 379489))
gpmainsites_ogl.53,W91051,Queensferry Medical Practice,0,CC106,North East Flintshire,1.00101E+11,46801549,331679,368246,53.2068877,-3.0243772,7A1,W11000023,Bwrdd Iechyd Prifysgol Betsi Cadwaladr,Betsi Cadwaladr University Health Board,W06000005,W02000068,W05001610,W01000328,W92000004,Cymru,Wales,110,51,MULTIPOINT ((331679 368246))
gpmainsites_ogl.54,W91053,Madryn House Surgery,0,CC111,North Denbighshire,1.00101E+11,46700772,301823.93,380860.75,53.315562,-3.4751371,7A1,W11000023,Bwrdd Iechyd Prifysgol Betsi Cadwaladr,Betsi Cadwaladr University Health Board,W06000004,W02000047,W05001352,W01000238,W92000004,Cymru,Wales,111,52,MULTIPOINT ((301823.93 380860.75))
gpmainsites_ogl.55,W91055,The Laurels Surgery,0,CC108,North West Flintshire,10093282519,46801181,324262.65,373083.25,53.2493543,-3.1365455,7A1,W11000023,Bwrdd Iechyd Prifysgol Betsi Cadwaladr,Betsi Cadwaladr University Health Board,W06000005,W02000061,W05001588,W01000290,W92000004,Cymru,Wales,113,53,MULTIPOINT ((324262.65 373083.25))
gpmainsites_ogl.56,W91056,Coedpoeth Health Centre,0,CC113,North & West Wrexham,10070388343,46911492,328687,351108,53.0524679,-3.0653491,7A1,W11000023,Bwrdd Iechyd Prifysgol Betsi Cadwaladr,Betsi Cadwaladr University Health Board,W06000006,W02000083,W05001726,W01000362,W92000004,Cymru,Wales,114,54,MULTIPOINT ((328687 351108))
gpmainsites_ogl.57,W91057,Middle Lane Surgery,0,CC103,Central & South Denbighshire,1.00101E+11,46700872,305467.62,366422.74,53.1864832,-3.4161697,7A1,W11000023,Bwrdd Iechyd Prifysgol Betsi Cadwaladr,Betsi Cadwaladr University Health Board,W06000004,W02000052,W05001334,W01000194,W92000004,Cymru,Wales,116,55,MULTIPOINT ((305467.62 366422.74))
gpmainsites_ogl.58,W91058,Hillcrest Medical Centre,2,CC114,Central Wrexham,1.00101E+11,46904289,334139,350657,53.0491157,-2.9839337,7A1,W11000023,Bwrdd Iechyd Prifysgol Betsi Cadwaladr,Betsi Cadwaladr University Health Board,W06000006,W02000089,W05001761,W01001931,W92000004,Cymru,Wales,117,56,MULTIPOINT ((334139 350657))
gpmainsites_ogl.59,W91059,Beech Avenue Practice,0,CC112,South Wrexham,10070384801,46902573,329196.03,346463.16,53.0107894,-3.0567347,7A1,W11000023,Bwrdd Iechyd Prifysgol Betsi Cadwaladr,Betsi Cadwaladr University Health Board,W06000006,W02000092,W05001754,W01000411,W92000004,Cymru,Wales,121,57,MULTIPOINT ((329196.03 346463.16))
gpmainsites_ogl.60,W91060,St Mark's Dee View Surgery,0,CC106,North East Flintshire,10091764787,46800416,330067.66,369128.65,53.2146105,-3.0486916,7A1,W11000023,Bwrdd Iechyd Prifysgol Betsi Cadwaladr,Betsi Cadwaladr University Health Board,W06000005,W02000065,W05001586,W01000283,W92000004,Cymru,Wales,122,58,MULTIPOINT ((330067.66 369128.65))
gpmainsites_ogl.61,W91604,Hanmer Surgery,0,CC112,South Wrexham,1.00101E+11,46900674,344523.27,339351.7,52.9486805,-2.8270996,7A1,W11000023,Bwrdd Iechyd Prifysgol Betsi Cadwaladr,Betsi Cadwaladr University Health Board,W06000006,W02000095,W05001717,W01000403,W92000004,Cymru,Wales,124,59,MULTIPOINT ((344523.27 339351.7))
gpmainsites_ogl.62,W91610,Caergwrle Medical Practice,0,CC110,South Flintshire,1.00101E+11,46802814,330417,357563.69,53.1107174,-3.0409437,7A1,W11000023,Bwrdd Iechyd Prifysgol Betsi Cadwaladr,Betsi Cadwaladr University Health Board,W06000005,W02000077,W05001580,W01000269,W92000004,Cymru,Wales,126,60,MULTIPOINT ((330417 357563.69))
gpmainsites_ogl.63,W91614,Crane Medical Centre,0,CC112,South Wrexham,2.00003E+11,46902742,327881.76,342274.8,52.9729699,-3.0753829,7A1,W11000023,Bwrdd Iechyd Prifysgol Betsi Cadwaladr,Betsi Cadwaladr University Health Board,W06000006,W02000094,W05001723,W01000355,W92000004,Cymru,Wales,127,61,MULTIPOINT ((327881.76 342274.8))
gpmainsites_ogl.64,W91615,Lakeside Medical Centre,0,CC111,North Denbighshire,2.00004E+11,46701286,300175.67,380778.33,53.3145131,-3.4998436,7A1,W11000023,Bwrdd Iechyd Prifysgol Betsi Cadwaladr,Betsi Cadwaladr University Health Board,W06000004,W02000045,W05001355,W01000241,W92000004,Cymru,Wales,128,62,MULTIPOINT ((300175.67 380778.33))
gpmainsites_ogl.65,W91622,Kings House Surgery,1,CC111,North Denbighshire,2.00004E+11,46700624,300589.6,381159.12,53.3180127,-3.4937521,7A1,W11000023,Bwrdd Iechyd Prifysgol Betsi Cadwaladr,Betsi Cadwaladr University Health Board,W06000004,W02000045,W05001355,W01000240,W92000004,Cymru,Wales,131,63,MULTIPOINT ((300589.6 381159.12))
gpmainsites_ogl.66,W91624,Berllan Surgery,0,CC103,Central & South Denbighshire,2.00004E+11,46701256,305394,366153,53.1840462,-3.4171911,7A1,W11000023,Bwrdd Iechyd Prifysgol Betsi Cadwaladr,Betsi Cadwaladr University Health Board,W06000004,W02000052,W05001334,W01000194,W92000004,Cymru,Wales,133,64,MULTIPOINT ((305394 366153))
gpmainsites_ogl.67,W91629,Caia Park Surgery,0,CC114,Central Wrexham,10091694476,46903379,334907.43,350194.9,53.0450568,-2.9723789,7A1,W11000023,Bwrdd Iechyd Prifysgol Betsi Cadwaladr,Betsi Cadwaladr University Health Board,W06000006,W02000087,W05001753,W01000413,W92000004,Cymru,Wales,135,65,MULTIPOINT ((334907.43 350194.9))
gpmainsites_ogl.68,W91636,Panton Surgery,0,CC108,North West Flintshire,10090465649,46803968,318974.08,375403.25,53.2694222,-3.2163803,7A1,W11000023,Bwrdd Iechyd Prifysgol Betsi Cadwaladr,Betsi Cadwaladr University Health Board,W06000005,W02000060,W05001596,W01000304,W92000004,Cymru,Wales,139,66,MULTIPOINT ((318974.08 375403.25))
gpmainsites_ogl.69,W92002,St Thomas Surgery,2,CC204,North Pembrokeshire,1.00101E+11,47000655,195258,215190,51.7977929,-4.9706811,7A2,W11000025,Bwrdd Iechyd Prifysgol Hywel Dda,Hywel Dda University Health Board,W06000009,W02000130,W05001445,W01002010,W92000004,Cymru,Wales,143,67,MULTIPOINT ((195258 215190))
gpmainsites_ogl.70,W92003,Meddygfa Minafon,1,CC201,Amman Gwendraeth,1.00101E+11,47204919,240420.87,206752.4,51.7367068,-4.3124827,7A2,W11000025,Bwrdd Iechyd Prifysgol Hywel Dda,Hywel Dda University Health Board,W06000010,W02000159,W05001198,W01000671,W92000004,Cymru,Wales,146,68,MULTIPOINT ((240420.87 206752.4))
gpmainsites_ogl.71,W92005,New Quay Surgery,0,CC205,South Ceredigion,49009078,47123509,238722.61,259888.14,52.2135541,-4.362033,7A2,W11000025,Bwrdd Iechyd Prifysgol Hywel Dda,Hywel Dda University Health Board,W06000008,W02000122,W05001325,W01002002,W92000004,Cymru,Wales,149,69,MULTIPOINT ((238722.61 259888.14))
gpmainsites_ogl.72,W92006,Borth Medical Practice,0,CC203,North Ceredigion,49042172,47100770,260846.98,289487.3,52.485523,-4.0507104,7A2,W11000025,Bwrdd Iechyd Prifysgol Hywel Dda,Hywel Dda University Health Board,W06000008,W02000116,W05001304,W01001937,W92000004,Cymru,Wales,150,70,MULTIPOINT ((260846.98 289487.3))
gpmainsites_ogl.73,W92007,Coach & Horses Surgery,1,CC207,Tywi / Taf,2.00003E+11,47205898,227959,216367,51.8193839,-4.497548,7A2,W11000025,Bwrdd Iechyd Prifysgol Hywel Dda,Hywel Dda University Health Board,W06000010,W02000418,W05001221,W01000720,W92000004,Cymru,Wales,151,71,MULTIPOINT ((227959 216367))
gpmainsites_ogl.74,W92008,Barlow House Surgery,0,CC204,North Pembrokeshire,1.00101E+11,47003312,190478,206050,51.7139592,-5.0343918,7A2,W11000025,Bwrdd Iechyd Prifysgol Hywel Dda,Hywel Dda University Health Board,W06000009,W02000135,W05001462,W01000587,W92000004,Cymru,Wales,153,72,MULTIPOINT ((190478 206050))
gpmainsites_ogl.75,W92009,Meddygfa Teilo,0,CC207,Tywi / Taf,10024324203,47203934,262999.96,222357.06,51.8829022,-3.991887,7A2,W11000025,Bwrdd Iechyd Prifysgol Hywel Dda,Hywel Dda University Health Board,W06000010,W02000145,W05001202,W01000677,W92000004,Cymru,Wales,155,73,MULTIPOINT ((262999.96 222357.06))
gpmainsites_ogl.76,W92013,Meddygfa'r Sarn,0,CC201,Amman Gwendraeth,10024324172,47204831,247013.16,208388.39,51.7532436,-4.2178089,7A2,W11000025,Bwrdd Iechyd Prifysgol Hywel Dda,Hywel Dda University Health Board,W06000010,W02000153,W05001211,W01000695,W92000004,Cymru,Wales,156,74,MULTIPOINT ((247013.16 208388.39))
gpmainsites_ogl.77,W92014,Church Surgery,0,CC203,North Ceredigion,49022154,47114992,258404.56,281882.47,52.416572,-4.0834266,7A2,W11000025,Bwrdd Iechyd Prifysgol Hywel Dda,Hywel Dda University Health Board,W06000008,W02000117,W05001300,W01000513,W92000004,Cymru,Wales,157,75,MULTIPOINT ((258404.56 281882.47))
gpmainsites_ogl.78,W92015,Fishguard Health Centre,0,CC204,North Pembrokeshire,2.00003E+11,47000441,195558,237119,51.9948002,-4.9793397,7A2,W11000025,Bwrdd Iechyd Prifysgol Hywel Dda,Hywel Dda University Health Board,W06000009,W02000127,W05001443,W01000566,W92000004,Cymru,Wales,158,76,MULTIPOINT ((195558 237119))
gpmainsites_ogl.79,W92016,Furnace House Surgery,0,CC207,Tywi / Taf,2.00003E+11,47206260,241413,220414,51.859722,-4.3043773,7A2,W11000025,Bwrdd Iechyd Prifysgol Hywel Dda,Hywel Dda University Health Board,W06000010,W02000149,W05001183,W01000641,W92000004,Cymru,Wales,159,77,MULTIPOINT ((241413 220414))
gpmainsites_ogl.80,W92018,Meddygfa Emlyn,0,CC205,South Ceredigion,49005696,47100212,230805,240964,52.0411982,-4.468395,7A2,W11000025,Bwrdd Iechyd Prifysgol Hywel Dda,Hywel Dda University Health Board,W06000008,W02000125,W05001311,W01000531,W92000004,Cymru,Wales,160,78,MULTIPOINT ((230805 240964))
gpmainsites_ogl.81,W92019,Llynyfran Surgery,0,CC205,South Ceredigion,49010273,47100308,241248,241276,52.0470907,-4.3164117,7A2,W11000025,Bwrdd Iechyd Prifysgol Hywel Dda,Hywel Dda University Health Board,W06000008,W02000125,W05001314,W01000533,W92000004,Cymru,Wales,161,79,MULTIPOINT ((241248 241276))
gpmainsites_ogl.82,W92021,Fairfield Surgery,0,CC202,Llanelli,1.00101E+11,47205768,250353,200288,51.6813662,-4.1659793,7A2,W11000025,Bwrdd Iechyd Prifysgol Hywel Dda,Hywel Dda University Health Board,W06000010,W02000164,W05001226,W01000654,W92000004,Cymru,Wales,162,80,MULTIPOINT ((250353 200288))
gpmainsites_ogl.83,W92022,Tanyfron Primary Care,0,CC203,North Ceredigion,49077988,47114741,245936,262361,52.2378337,-4.2576681,7A2,W11000025,Bwrdd Iechyd Prifysgol Hywel Dda,Hywel Dda University Health Board,W06000008,W02000120,W05001298,W01000506,W92000004,Cymru,Wales,163,81,MULTIPOINT ((245936 262361))
gpmainsites_ogl.84,W92023,Meddygfa Taf,0,CC207,Tywi / Taf,2.00002E+11,47205628,219882,216735,51.8201438,-4.6148009,7A2,W11000025,Bwrdd Iechyd Prifysgol Hywel Dda,Hywel Dda University Health Board,W06000010,W02000418,W05001227,W01000735,W92000004,Cymru,Wales,164,82,MULTIPOINT ((219882 216735))
gpmainsites_ogl.85,W92024,Meddygfa Padarn Surgery,0,CC203,North Ceredigion,49073940,47100818,259398.89,281990.72,52.4178012,-4.0688618,7A2,W11000025,Bwrdd Iechyd Prifysgol Hywel Dda,Hywel Dda University Health Board,W06000008,W02000117,W05001300,W01002000,W92000004,Cymru,Wales,165,83,MULTIPOINT ((259398.89 281990.72))
gpmainsites_ogl.86,W92025,Ystwyth Medical Group,0,CC203,North Ceredigion,49023320,47123480,259313,280766,52.4067758,-4.0696087,7A2,W11000025,Bwrdd Iechyd Prifysgol Hywel Dda,Hywel Dda University Health Board,W06000008,W02000118,W05001310,W01001935,W92000004,Cymru,Wales,166,84,MULTIPOINT ((259313 280766))
gpmainsites_ogl.87,W92027,Tenby Surgery,0,CC206,South Pembrokeshire,10002141695,47001824,213182,201059,51.677155,-4.7034771,7A2,W11000025,Bwrdd Iechyd Prifysgol Hywel Dda,Hywel Dda University Health Board,W06000009,W02000141,W05001488,W01000619,W92000004,Cymru,Wales,167,85,MULTIPOINT ((213182 201059))
gpmainsites_ogl.88,W92031,Meddygfa Tywyn Bach,0,CC202,Llanelli,10024021132,47205461,244695.09,200944.41,51.6857272,-4.2480445,7A2,W11000025,Bwrdd Iechyd Prifysgol Hywel Dda,Hywel Dda University Health Board,W06000010,W02000162,W05001181,W01000632,W92000004,Cymru,Wales,170,86,MULTIPOINT ((244695.09 200944.41))
gpmainsites_ogl.89,W92033,Saundersfoot Medical Centre,1,CC206,South Pembrokeshire,1.00101E+11,47001881,213416,204842,51.7112091,-4.7021202,7A2,W11000025,Bwrdd Iechyd Prifysgol Hywel Dda,Hywel Dda University Health Board,W06000009,W02000136,W05001482,W01002013,W92000004,Cymru,Wales,171,87,MULTIPOINT ((213416 204842))
gpmainsites_ogl.90,W92035,Amman Tawe Partnership,0,CC201,Amman Gwendraeth,10004856340,47203651,255978,212985,51.7969235,-4.0899333,7A2,W11000025,Bwrdd Iechyd Prifysgol Hywel Dda,Hywel Dda University Health Board,W06000010,W02000156,W05001212,W01000697,W92000004,Cymru,Wales,174,88,MULTIPOINT ((255978 212985))
gpmainsites_ogl.91,W92036,Brynteg Surgery,1,CC201,Amman Gwendraeth,10004859550,47206131,262723.49,212847.51,51.7973853,-3.992125,7A2,W11000025,Bwrdd Iechyd Prifysgol Hywel Dda,Hywel Dda University Health Board,W06000010,W02000154,W05001178,W01000714,W92000004,Cymru,Wales,176,89,MULTIPOINT ((262723.49 212847.51))
gpmainsites_ogl.92,W92037,Avenue Villa Surgery,0,CC202,Llanelli,10009170416,47203103,250307,200090,51.6795749,-4.1665592,7A2,W11000025,Bwrdd Iechyd Prifysgol Hywel Dda,Hywel Dda University Health Board,W06000010,W02000164,W05001226,W01000654,W92000004,Cymru,Wales,178,90,MULTIPOINT ((250307 200090))
gpmainsites_ogl.93,W92038,Narberth Surgery,0,CC206,South Pembrokeshire,2.00003E+11,47001739,210859,214909,51.8007635,-4.7445643,7A2,W11000025,Bwrdd Iechyd Prifysgol Hywel Dda,Hywel Dda University Health Board,W06000009,W02000132,W05001468,W01000595,W92000004,Cymru,Wales,179,91,MULTIPOINT ((210859 214909))
gpmainsites_ogl.94,W92039,Bro Pedr Medical Group,1,CC205,South Ceredigion,49017547,47123279,257894,248068,52.1126349,-4.076684,7A2,W11000025,Bwrdd Iechyd Prifysgol Hywel Dda,Hywel Dda University Health Board,W06000008,W02000123,W05001308,W01000527,W92000004,Cymru,Wales,180,92,MULTIPOINT ((257894 248068))
gpmainsites_ogl.95,W92040,Margaret Street Practice,1,CC201,Amman Gwendraeth,10004859283,47206374,262945,212555,51.7948112,-3.9887992,7A2,W11000025,Bwrdd Iechyd Prifysgol Hywel Dda,Hywel Dda University Health Board,W06000010,W02000154,W05001178,W01000626,W92000004,Cymru,Wales,182,93,MULTIPOINT ((262945 212555))
gpmainsites_ogl.96,W92041,The Robert Street Surgery,0,CC204,North Pembrokeshire,10090689326,47003312,190478,206050,51.7139592,-5.0343918,7A2,W11000025,Bwrdd Iechyd Prifysgol Hywel Dda,Hywel Dda University Health Board,W06000009,W02000135,W05001462,W01000587,W92000004,Cymru,Wales,184,94,MULTIPOINT ((190478 206050))
gpmainsites_ogl.97,W92042,Winch Lane Surgery,0,CC204,North Pembrokeshire,2.00003E+11,47000672,195429,215199,51.7979362,-4.96821,7A2,W11000025,Bwrdd Iechyd Prifysgol Hywel Dda,Hywel Dda University Health Board,W06000009,W02000130,W05001445,W01002010,W92000004,Cymru,Wales,185,95,MULTIPOINT ((195429 215199))
gpmainsites_ogl.98,W92044,Cardigan Health Centre,0,CC205,South Ceredigion,49078040,47100448,217670.85,246716.68,52.0886988,-4.6627565,7A2,W11000025,Bwrdd Iechyd Prifysgol Hywel Dda,Hywel Dda University Health Board,W06000008,W02000124,W05001324,W01000509,W92000004,Cymru,Wales,186,96,MULTIPOINT ((217670.85 246716.68))
gpmainsites_ogl.99,W92046,Coalbrook Surgery,0,CC201,Amman Gwendraeth,1.00101E+11,47203861,250503.48,211055.33,51.7781485,-4.1684305,7A2,W11000025,Bwrdd Iechyd Prifysgol Hywel Dda,Hywel Dda University Health Board,W06000010,W02000157,W05001219,W01000716,W92000004,Cymru,Wales,188,97,MULTIPOINT ((250503.48 211055.33))
gpmainsites_ogl.100,W92048,Llangennech Surgery,0,CC202,Llanelli,10009543483,47205772,256066,201943,51.6977308,-4.0840862,7A2,W11000025,Bwrdd Iechyd Prifysgol Hywel Dda,Hywel Dda University Health Board,W06000010,W02000160,W05001209,W01000692,W92000004,Cymru,Wales,189,98,MULTIPOINT ((256066 201943))
gpmainsites_ogl.101,W92050,St Peter's Surgery,0,CC207,Tywi / Taf,10004866254,47206291,241469.41,220443.89,51.8600066,-4.3035726,7A2,W11000025,Bwrdd Iechyd Prifysgol Hywel Dda,Hywel Dda University Health Board,W06000010,W02000149,W05001183,W01000641,W92000004,Cymru,Wales,190,99,MULTIPOINT ((241469.41 220443.89))
gpmainsites_ogl.102,W92051,Meddygfa Penygroes,1,CC201,Amman Gwendraeth,10004858237,47207810,258521,213654,51.803584,-4.0533549,7A2,W11000025,Bwrdd Iechyd Prifysgol Hywel Dda,Hywel Dda University Health Board,W06000010,W02000156,W05001218,W01000713,W92000004,Cymru,Wales,191,100,MULTIPOINT ((258521 213654))
gpmainsites_ogl.103,W92052,Ty Elli Group Practice,1,CC202,Llanelli,10004864368,47207228,250532,200524,51.6835343,-4.1634932,7A2,W11000025,Bwrdd Iechyd Prifysgol Hywel Dda,Hywel Dda University Health Board,W06000010,W02000164,W05001190,W01000654,W92000004,Cymru,Wales,193,101,MULTIPOINT ((250532 200524))
gpmainsites_ogl.104,W92053,Tregaron Surgery,0,CC203,North Ceredigion,49032019,47100706,267934.74,259724.31,52.2198624,-3.9346828,7A2,W11000025,Bwrdd Iechyd Prifysgol Hywel Dda,Hywel Dda University Health Board,W06000008,W02000421,W05001330,W01000550,W92000004,Cymru,Wales,195,102,MULTIPOINT ((267934.74 259724.31))
gpmainsites_ogl.105,W92055,Llanfair Surgery,1,CC207,Tywi / Taf,2.00003E+11,47205088,276752.63,234863.16,51.9984995,-3.7966683,7A2,W11000025,Bwrdd Iechyd Prifysgol Hywel Dda,Hywel Dda University Health Board,W06000010,W02000143,W05001203,W01000678,W92000004,Cymru,Wales,197,103,MULTIPOINT ((276752.63 234863.16))
gpmainsites_ogl.106,W92056,Llanilar Health Centre,0,CC203,North Ceredigion,49043253,47100924,262623,275079,52.356521,-4.0186511,7A2,W11000025,Bwrdd Iechyd Prifysgol Hywel Dda,Hywel Dda University Health Board,W06000008,W02000421,W05001331,W01000552,W92000004,Cymru,Wales,199,104,MULTIPOINT ((262623 275079))
gpmainsites_ogl.108,W92059,Meddygfa Penrhyn / Peninsula Practice,0,CC204,North Pembrokeshire,1.00101E+11,47003982,179930,224330,51.8740223,-5.1984291,7A2,W11000025,Bwrdd Iechyd Prifysgol Hywel Dda,Hywel Dda University Health Board,W06000009,W02000128,W05001483,W01000618,W92000004,Cymru,Wales,201,105,MULTIPOINT ((179930 224330))
gpmainsites_ogl.109,W92063,Meddygfa Tywi,0,CC207,Tywi / Taf,10004853830,47208814,249286.63,221470.68,51.8713993,-4.1905905,7A2,W11000025,Bwrdd Iechyd Prifysgol Hywel Dda,Hywel Dda University Health Board,W06000010,W02000146,W05001205,W01000682,W92000004,Cymru,Wales,205,106,MULTIPOINT ((249286.63 221470.68))
gpmainsites_ogl.110,W92064,Newport Surgery,1,CC204,North Pembrokeshire,2.00003E+11,47001327,205639,239205,52.0171518,-4.8338804,7A2,W11000025,Bwrdd Iechyd Prifysgol Hywel Dda,Hywel Dda University Health Board,W06000009,W02000127,W05001470,W01000597,W92000004,Cymru,Wales,206,107,MULTIPOINT ((205639 239205))
gpmainsites_ogl.111,W92440,Neyland Health Centre,1,CC206,South Pembrokeshire,2.00003E+11,47000964,196408,205018,51.7068761,-4.9480704,7A2,W11000025,Bwrdd Iechyd Prifysgol Hywel Dda,Hywel Dda University Health Board,W06000009,W02000134,W05001471,W01000598,W92000004,Cymru,Wales,210,108,MULTIPOINT ((196408 205018))
gpmainsites_ogl.112,W92616,Morfa Lane Surgery,0,CC207,Tywi / Taf,1.001E+11,47205491,240748,220009,51.8558941,-4.3138393,7A2,W11000025,Bwrdd Iechyd Prifysgol Hywel Dda,Hywel Dda University Health Board,W06000010,W02000149,W05001183,W01000641,W92000004,Cymru,Wales,217,109,MULTIPOINT ((240748 220009))
gpmainsites_ogl.113,W93001,St. Luke's Surgery,0,CC603,Caerphilly East,43076660,47501853,321612,194980,51.6481311,-3.1343695,7A6,W11000028,Bwrdd Iechyd Prifysgol Aneurin Bevan,Aneurin Bevan University Health Board,W06000018,W02000303,W05001650,W01001327,W92000004,Cymru,Wales,218,110,MULTIPOINT ((321612 194980))
gpmainsites_ogl.114,W93004,Tudor Gate Surgery,0,CC606,Monmouthshire North,2.00001E+11,47301057,329739,214160,51.8216319,-3.0208047,7A6,W11000028,Bwrdd Iechyd Prifysgol Aneurin Bevan,Aneurin Bevan University Health Board,W06000021,W02000336,W05001775,W01001557,W92000004,Cymru,Wales,219,111,MULTIPOINT ((329739 214160))
gpmainsites_ogl.115,W93007,Cwm Calon,0,CC601,Blaenau Gwent East,10070620050,3100351,321729.51,204363.3,51.7324987,-3.1347788,7A6,W11000028,Bwrdd Iechyd Prifysgol Aneurin Bevan,Aneurin Bevan University Health Board,W06000019,W02000321,W05001261,W01001455,W92000004,Cymru,Wales,220,112,MULTIPOINT ((321729.51 204363.3))
gpmainsites_ogl.116,W93009,Aberbeeg Medical Practice,0,CC601,Blaenau Gwent East,10014118100,3100953,320957.56,202025.59,51.7113751,-3.1454228,7A6,W11000028,Bwrdd Iechyd Prifysgol Aneurin Bevan,Aneurin Bevan University Health Board,W06000019,W02000322,W05001265,W01001465,W92000004,Cymru,Wales,222,113,MULTIPOINT ((320957.56 202025.59))
gpmainsites_ogl.117,W93011,Avicenna Medical Centre,1,CC603,Caerphilly East,43166830,47500725,317882,195957,51.6563811,-3.1884967,7A6,W11000028,Bwrdd Iechyd Prifysgol Aneurin Bevan,Aneurin Bevan University Health Board,W06000018,W02000300,W05001670,W01001403,W92000004,Cymru,Wales,225,114,MULTIPOINT ((317882 195957))
gpmainsites_ogl.118,W93012,Riverside Medical Practice,0,CC603,Caerphilly East,43051771,47500725,317836,195920,51.6560418,-3.1891528,7A6,W11000028,Bwrdd Iechyd Prifysgol Aneurin Bevan,Aneurin Bevan University Health Board,W06000018,W02000300,W05001670,W01001403,W92000004,Cymru,Wales,227,115,MULTIPOINT ((317836 195920))
gpmainsites_ogl.119,W93014,Sunnybank Health Centre,0,CC603,Caerphilly East,43049389,47500831,316577,197561,51.6706072,-3.2077413,7A6,W11000028,Bwrdd Iechyd Prifysgol Aneurin Bevan,Aneurin Bevan University Health Board,W06000018,W02000296,W05001654,W01001353,W92000004,Cymru,Wales,228,116,MULTIPOINT ((316577 197561))
gpmainsites_ogl.120,W93015,Blaenavon Medical Practice,0,CC611,Torfaen North,10091509854,40800598,325694.12,208846.54,51.7733421,-3.0783404,7A6,W11000028,Bwrdd Iechyd Prifysgol Aneurin Bevan,Aneurin Bevan University Health Board,W06000020,W02000323,W05001362,W01001487,W92000004,Cymru,Wales,229,117,MULTIPOINT ((325694.12 208846.54))
gpmainsites_ogl.121,W93018,Isca Medical Centre,1,CC609,Newport East,1.00101E+11,27104811,333879,190656,51.6108374,-2.9562793,7A6,W11000028,Bwrdd Iechyd Prifysgol Aneurin Bevan,Aneurin Bevan University Health Board,W06000022,W02000347,W05001632,W01001623,W92000004,Cymru,Wales,230,118,MULTIPOINT ((333879 190656))
gpmainsites_ogl.122,W93019,Wye Valley Practice,1,CC606,Monmouthshire North,1.00121E+11,14700845,356361,204474,51.7372677,-2.6333629,7A6,W11000028,Bwrdd Iechyd Prifysgol Aneurin Bevan,Aneurin Bevan University Health Board,E07000080,,,,E92000001,Lloegr,England,232,119,MULTIPOINT ((356361 204474))
gpmainsites_ogl.123,W93020,Vauxhall Surgery,1,CC607,Monmouthshire South,2.00001E+11,47301084,352945.36,193616.72,51.639376,-2.6813592,7A6,W11000028,Bwrdd Iechyd Prifysgol Aneurin Bevan,Aneurin Bevan University Health Board,W06000021,W02000342,W05001786,W01001586,W92000004,Cymru,Wales,234,120,MULTIPOINT ((352945.36 193616.72))
gpmainsites_ogl.124,W93021,Mount Pleasant Practice,1,CC607,Monmouthshire South,10033355689,47303034,352610.84,193611.47,51.6393006,-2.6861921,7A6,W11000028,Bwrdd Iechyd Prifysgol Aneurin Bevan,Aneurin Bevan University Health Board,W06000021,W02000342,W05001786,W01001586,W92000004,Cymru,Wales,236,121,MULTIPOINT ((352610.84 193611.47))
gpmainsites_ogl.125,W93022,Town Gate Practice,1,CC607,Monmouthshire South,10033355688,47303034,352610.84,193611.47,51.6393006,-2.6861921,7A6,W11000028,Bwrdd Iechyd Prifysgol Aneurin Bevan,Aneurin Bevan University Health Board,W06000021,W02000342,W05001786,W01001586,W92000004,Cymru,Wales,238,122,MULTIPOINT ((352610.84 193611.47))
gpmainsites_ogl.126,W93023,Gray Hill Surgery,1,CC607,Monmouthshire South,2.00001E+11,47301165,347900.67,188054.06,51.5889176,-2.7534203,7A6,W11000028,Bwrdd Iechyd Prifysgol Aneurin Bevan,Aneurin Bevan University Health Board,W06000021,W02000345,W05001794,W01001588,W92000004,Cymru,Wales,240,123,MULTIPOINT ((347900.67 188054.06))
gpmainsites_ogl.127,W93024,Oak Street Surgery,0,CC612,Torfaen South,10013477406,40801187,329212,194778,51.6473258,-3.0245019,7A6,W11000028,Bwrdd Iechyd Prifysgol Aneurin Bevan,Aneurin Bevan University Health Board,W06000020,W02000332,W05001375,W01001527,W92000004,Cymru,Wales,242,124,MULTIPOINT ((329212 194778))
gpmainsites_ogl.128,W93026,New Chapel Street Surgery,0,CC612,Torfaen South,2.00003E+11,40800418,329199,196223,51.6603144,-3.0249828,7A6,W11000028,Bwrdd Iechyd Prifysgol Aneurin Bevan,Aneurin Bevan University Health Board,W06000020,W02000329,W05001372,W01001521,W92000004,Cymru,Wales,244,125,MULTIPOINT ((329199 196223))
gpmainsites_ogl.129,W93027,Cwmbran Village Surgery,1,CC612,Torfaen South,1.00101E+11,40801564,329302,194911,51.6485328,-3.0232283,7A6,W11000028,Bwrdd Iechyd Prifysgol Aneurin Bevan,Aneurin Bevan University Health Board,W06000020,W02000332,W05001368,W01001506,W92000004,Cymru,Wales,245,126,MULTIPOINT ((329302 194911))
gpmainsites_ogl.130,W93028,Clark Avenue Surgery,0,CC612,Torfaen South,1.00101E+11,40800192,329106,196598,51.6636738,-3.0264033,7A6,W11000028,Bwrdd Iechyd Prifysgol Aneurin Bevan,Aneurin Bevan University Health Board,W06000020,W02000329,W05001372,W01001522,W92000004,Cymru,Wales,247,127,MULTIPOINT ((329106 196598))
gpmainsites_ogl.131,W93029,Nant Dowlais Health Centre,1,CC612,Torfaen South,1.00101E+11,40802331,327545.49,194505.19,51.6446607,-3.0485271,7A6,W11000028,Bwrdd Iechyd Prifysgol Aneurin Bevan,Aneurin Bevan University Health Board,W06000020,W02000333,W05001365,W01001497,W92000004,Cymru,Wales,248,128,MULTIPOINT ((327545.49 194505.19))
gpmainsites_ogl.132,W93031,Panteg Health Centre,0,CC611,Torfaen North,2.00003E+11,40800489,329323,198891,51.6843145,-3.0237307,7A6,W11000028,Bwrdd Iechyd Prifysgol Aneurin Bevan,Aneurin Bevan University Health Board,W06000020,W02000328,W05001371,W01001515,W92000004,Cymru,Wales,252,129,MULTIPOINT ((329323 198891))
gpmainsites_ogl.133,W93032,Glan Rhyd Surgery,0,CC602,Blaenau Gwent West,2.00001E+11,3100764,316405.07,211447.18,51.795408,-3.2135653,7A6,W11000028,Bwrdd Iechyd Prifysgol Aneurin Bevan,Aneurin Bevan University Health Board,W06000019,W02000314,W05001257,W01001442,W92000004,Cymru,Wales,254,130,MULTIPOINT ((316405.07 211447.18))
gpmainsites_ogl.134,W93033,Old Station Surgery,0,CC606,Monmouthshire North,2.00001E+11,47300133,329453.18,214583.4,51.8254021,-3.0250373,7A6,W11000028,Bwrdd Iechyd Prifysgol Aneurin Bevan,Aneurin Bevan University Health Board,W06000021,W02000337,W05001775,W01001546,W92000004,Cymru,Wales,255,131,MULTIPOINT ((329453.18 214583.4))
gpmainsites_ogl.136,W93036,Castle Gate Medical Practice,1,CC606,Monmouthshire North,2.00001E+11,47300657,350587,212569,51.8095652,-2.7181284,7A6,W11000028,Bwrdd Iechyd Prifysgol Aneurin Bevan,Aneurin Bevan University Health Board,W06000021,W02000339,W05001798,W01001554,W92000004,Cymru,Wales,258,132,MULTIPOINT ((350587 212569))
gpmainsites_ogl.137,W93037,Usk Surgery,0,CC606,Monmouthshire North,10033337091,47300614,337653.91,200776.32,51.7022523,-2.9035809,7A6,W11000028,Bwrdd Iechyd Prifysgol Aneurin Bevan,Aneurin Bevan University Health Board,W06000021,W02000341,W05001777,W01001596,W92000004,Cymru,Wales,260,133,MULTIPOINT ((337653.91 200776.32))
gpmainsites_ogl.138,W93039,St Paul's Clinic,0,CC610,Newport West,2.00003E+11,27101088,331228,187587,51.5829287,-2.9939549,7A6,W11000028,Bwrdd Iechyd Prifysgol Aneurin Bevan,Aneurin Bevan University Health Board,W06000022,W02000360,W05001645,W01001687,W92000004,Cymru,Wales,262,134,MULTIPOINT ((331228 187587))
gpmainsites_ogl.139,W93040,Park Surgery,0,CC609,Newport East,10096455526,27101222,335496.65,188833.07,51.5946367,-2.9325856,7A6,W11000028,Bwrdd Iechyd Prifysgol Aneurin Bevan,Aneurin Bevan University Health Board,W06000022,W02000356,W05001639,W01001666,W92000004,Cymru,Wales,263,135,MULTIPOINT ((335496.65 188833.07))
gpmainsites_ogl.140,W93043,Richmond Clinic,0,CC609,Newport East,1.00101E+11,27100238,332149,189203,51.5975687,-2.9809775,7A6,W11000028,Bwrdd Iechyd Prifysgol Aneurin Bevan,Aneurin Bevan University Health Board,W06000022,W02000353,W05001644,W01001675,W92000004,Cymru,Wales,266,136,MULTIPOINT ((332149 189203))
gpmainsites_ogl.141,W93044,The Rugby Surgery,0,CC609,Newport East,1.00101E+11,27100806,332339,187724,51.5842951,-2.9779491,7A6,W11000028,Bwrdd Iechyd Prifysgol Aneurin Bevan,Aneurin Bevan University Health Board,W06000022,W02000359,W05001647,W01001690,W92000004,Cymru,Wales,267,137,MULTIPOINT ((332339 187724))
gpmainsites_ogl.142,W93045,Westfield Medical Centre,0,CC610,Newport West,1.00101E+11,27101560,330382,190619,51.6100828,-3.0067656,7A6,W11000028,Bwrdd Iechyd Prifysgol Aneurin Bevan,Aneurin Bevan University Health Board,W06000022,W02000348,W05001637,W01001654,W92000004,Cymru,Wales,268,138,MULTIPOINT ((330382 190619))
gpmainsites_ogl.143,W93046,Bryngwyn Surgery,0,CC610,Newport West,10014122644,27100218,330403,188041,51.5869087,-3.0059499,7A6,W11000028,Bwrdd Iechyd Prifysgol Aneurin Bevan,Aneurin Bevan University Health Board,W06000022,W02000358,W05001627,W01001603,W92000004,Cymru,Wales,269,139,MULTIPOINT ((330403 188041))
gpmainsites_ogl.144,W93047,Ringland Medical Practice,0,CC609,Newport East,1.00101E+11,27101222,335452.43,188768.61,51.5940521,-2.933212,7A6,W11000028,Bwrdd Iechyd Prifysgol Aneurin Bevan,Aneurin Bevan University Health Board,W06000022,W02000356,W05001639,W01001666,W92000004,Cymru,Wales,270,140,MULTIPOINT ((335452.43 188768.61))
gpmainsites_ogl.145,W93048,Bellevue Surgery,1,CC610,Newport West,10002148796,27100411,331039,186969,51.5773498,-2.9965609,7A6,W11000028,Bwrdd Iechyd Prifysgol Aneurin Bevan,Aneurin Bevan University Health Board,W06000022,W02000364,W05001638,W01001659,W92000004,Cymru,Wales,271,141,MULTIPOINT ((331039 186969))
gpmainsites_ogl.146,W93049,St Julians Medical Centre,0,CC609,Newport East,1.00101E+11,27101362,332046,189379,51.5991386,-2.9824984,7A6,W11000028,Bwrdd Iechyd Prifysgol Aneurin Bevan,Aneurin Bevan University Health Board,W06000022,W02000353,W05001644,W01001680,W92000004,Cymru,Wales,273,142,MULTIPOINT ((332046 189379))
gpmainsites_ogl.147,W93051,Malpas Brook Health Centre,0,CC610,Newport West,1.00101E+11,27100933,330619,189474,51.5998182,-3.0031165,7A6,W11000028,Bwrdd Iechyd Prifysgol Aneurin Bevan,Aneurin Bevan University Health Board,W06000022,W02000352,W05001643,W01001684,W92000004,Cymru,Wales,275,143,MULTIPOINT ((330619 189474))
gpmainsites_ogl.148,W93053,Beechwood Primary Care,1,CC609,Newport East,2.00002E+11,27111812,333294,188155,51.588284,-2.9642498,7A6,W11000028,Bwrdd Iechyd Prifysgol Aneurin Bevan,Aneurin Bevan University Health Board,W06000022,W02000354,W05001628,W01001608,W92000004,Cymru,Wales,277,144,MULTIPOINT ((333294 188155))
gpmainsites_ogl.149,W93054,St David's Clinic,2,CC610,Newport West,10002149105,27100411,331019,186926,51.5769607,-2.996841,7A6,W11000028,Bwrdd Iechyd Prifysgol Aneurin Bevan,Aneurin Bevan University Health Board,W06000022,W02000364,W05001638,W01001659,W92000004,Cymru,Wales,279,145,MULTIPOINT ((331019 186926))
gpmainsites_ogl.150,W93055,Trosnant Lodge,0,CC611,Torfaen North,2.00002E+11,40801500,328423,200594,51.6995099,-3.0370964,7A6,W11000028,Bwrdd Iechyd Prifysgol Aneurin Bevan,Aneurin Bevan University Health Board,W06000020,W02000326,W05001374,W01001524,W92000004,Cymru,Wales,282,146,MULTIPOINT ((328423 200594))
gpmainsites_ogl.152,W93057,Abersychan Group Practice,1,CC611,Torfaen North,10013475521,40801203,327009,203238,51.7230963,-3.0581077,7A6,W11000028,Bwrdd Iechyd Prifysgol Aneurin Bevan,Aneurin Bevan University Health Board,W06000020,W02000325,W05001373,W01001529,W92000004,Cymru,Wales,286,147,MULTIPOINT ((327009 203238))
gpmainsites_ogl.153,W93058,Pontypool Medical Centre,2,CC611,Torfaen North,10013475686,40803006,328041,201244,51.7053044,-3.0427572,7A6,W11000028,Bwrdd Iechyd Prifysgol Aneurin Bevan,Aneurin Bevan University Health Board,W06000020,W02000326,W05001374,W01001524,W92000004,Cymru,Wales,288,148,MULTIPOINT ((328041 201244))
gpmainsites_ogl.154,W93059,Wellspring Medical Centre,0,CC603,Caerphilly East,43074488,47502859,324211,190371,51.6070554,-3.0958133,7A6,W11000028,Bwrdd Iechyd Prifysgol Aneurin Bevan,Aneurin Bevan University Health Board,W06000018,W02000306,W05001672,W01001412,W92000004,Cymru,Wales,291,149,MULTIPOINT ((324211 190371))
gpmainsites_ogl.155,W93061,The Rogerstone Practice,0,CC610,Newport West,2.00002E+11,27101559,327935,187561,51.5822828,-3.0414682,7A6,W11000028,Bwrdd Iechyd Prifysgol Aneurin Bevan,Aneurin Bevan University Health Board,W06000022,W02000355,W05001640,W01001674,W92000004,Cymru,Wales,292,150,MULTIPOINT ((327935 187561))
gpmainsites_ogl.156,W93063,Tredegar Medical Practice,0,CC602,Blaenau Gwent West,2.00003E+11,3100658,314025.84,208709.71,51.7704401,-3.2473794,7A6,W11000028,Bwrdd Iechyd Prifysgol Aneurin Bevan,Aneurin Bevan University Health Board,W06000019,W02000319,W05001269,W01001481,W92000004,Cymru,Wales,293,151,MULTIPOINT ((314025.84 208709.71))
gpmainsites_ogl.157,W93064,Risca Surgery,1,CC603,Caerphilly East,43071343,47503357,323424,191292,51.6152285,-3.1073777,7A6,W11000028,Bwrdd Iechyd Prifysgol Aneurin Bevan,Aneurin Bevan University Health Board,W06000018,W02000306,W05001672,W01001411,W92000004,Cymru,Wales,294,152,MULTIPOINT ((323424 191292))
gpmainsites_ogl.158,W93065,Glan-Yr-Afon Surgery Ltd,0,CC602,Blaenau Gwent West,2.00003E+11,3100786,314343.98,208696.17,51.7703672,-3.2427665,7A6,W11000028,Bwrdd Iechyd Prifysgol Aneurin Bevan,Aneurin Bevan University Health Board,W06000019,W02000319,W05001269,W01001481,W92000004,Cymru,Wales,296,153,MULTIPOINT ((314343.98 208696.17))
gpmainsites_ogl.159,W93067,North Celynen Practice,1,CC603,Caerphilly East,43171512,47501361,321246,198231,51.6773041,-3.1403911,7A6,W11000028,Bwrdd Iechyd Prifysgol Aneurin Bevan,Aneurin Bevan University Health Board,W06000018,W02000295,W05001656,W01001359,W92000004,Cymru,Wales,298,154,MULTIPOINT ((321246 198231))
gpmainsites_ogl.160,W93068,Brynmawr Medical Practice,0,CC601,Blaenau Gwent East,10093452170,3101494,319278.02,211450.23,51.7958575,-3.1719166,7A6,W11000028,Bwrdd Iechyd Prifysgol Aneurin Bevan,Aneurin Bevan University Health Board,W06000019,W02000315,W05001259,W01001448,W92000004,Cymru,Wales,301,155,MULTIPOINT ((319278.02 211450.23))
gpmainsites_ogl.161,W93072,Dixton Surgery,0,CC606,Monmouthshire North,10033351516,47300335,351094.13,213187.64,51.8151719,-2.7108606,7A6,W11000028,Bwrdd Iechyd Prifysgol Aneurin Bevan,Aneurin Bevan University Health Board,W06000021,W02000339,W05001798,W01001554,W92000004,Cymru,Wales,307,156,MULTIPOINT ((351094.13 213187.64))
gpmainsites_ogl.162,W93075,Abertillery Group Practice,0,CC601,Blaenau Gwent East,10070620050,3100351,321729.51,204363.3,51.7324987,-3.1347788,7A6,W11000028,Bwrdd Iechyd Prifysgol Aneurin Bevan,Aneurin Bevan University Health Board,W06000019,W02000321,W05001261,W01001455,W92000004,Cymru,Wales,308,157,MULTIPOINT ((321729.51 204363.3))
gpmainsites_ogl.163,W93115,Blaina Medical Practice,0,CC601,Blaenau Gwent East,10070620110,3100466,319969.63,208346.81,51.7680592,-3.1611743,7A6,W11000028,Bwrdd Iechyd Prifysgol Aneurin Bevan,Aneurin Bevan University Health Board,W06000019,W02000318,W05001258,W01001443,W92000004,Cymru,Wales,311,158,MULTIPOINT ((319969.63 208346.81))
gpmainsites_ogl.165,W93125,Underwood Health Centre,0,CC609,Newport East,10002152378,27100153,338597,188939,51.5959357,-2.8878526,7A6,W11000028,Bwrdd Iechyd Prifysgol Aneurin Bevan,Aneurin Bevan University Health Board,W06000022,W02000350,W05001631,W01002027,W92000004,Cymru,Wales,316,159,MULTIPOINT ((338597 188939))
gpmainsites_ogl.166,W93126,Hereford Road Surgery,0,CC606,Monmouthshire North,10033346184,47300463,330115.57,214370.62,51.8235726,-3.0153846,7A6,W11000028,Bwrdd Iechyd Prifysgol Aneurin Bevan,Aneurin Bevan University Health Board,W06000021,W02000337,W05001775,W01001580,W92000004,Cymru,Wales,317,160,MULTIPOINT ((330115.57 214370.62))
gpmainsites_ogl.167,W93614,Pengam Health Centre,0,CC604,Caerphilly North,43044019,47501703,315394,196942,51.664866,-3.2246945,7A6,W11000028,Bwrdd Iechyd Prifysgol Aneurin Bevan,Aneurin Bevan University Health Board,W06000018,W02000296,W05001654,W01001389,W92000004,Cymru,Wales,318,161,MULTIPOINT ((315394 196942))
gpmainsites_ogl.168,W93619,Cwm Health Centre,0,CC602,Blaenau Gwent West,10014119422,3100180,318348.56,205323.29,51.7406457,-3.1839509,7A6,W11000028,Bwrdd Iechyd Prifysgol Aneurin Bevan,Aneurin Bevan University Health Board,W06000019,W02000320,W05001260,W01001451,W92000004,Cymru,Wales,319,162,MULTIPOINT ((318348.56 205323.29))
gpmainsites_ogl.169,W93623,Pen-y-Cae Surgery,0,CC602,Blaenau Gwent West,10093452229,3100122,316713.39,210177.75,51.7840429,-3.2087909,7A6,W11000028,Bwrdd Iechyd Prifysgol Aneurin Bevan,Aneurin Bevan University Health Board,W06000019,W02000317,W05001262,W01001456,W92000004,Cymru,Wales,320,163,MULTIPOINT ((316713.39 210177.75))
gpmainsites_ogl.170,W93640,Lliswerry Medical Centre,0,CC609,Newport East,2.00003E+11,27100538,334156,187057,51.5785143,-2.951603,7A6,W11000028,Bwrdd Iechyd Prifysgol Aneurin Bevan,Aneurin Bevan University Health Board,W06000022,W02000361,W05001635,W01001646,W92000004,Cymru,Wales,324,164,MULTIPOINT ((334156 187057))
gpmainsites_ogl.171,W93643,"Wye Dean Practice, Tintern Surgery",0,CC607,Monmouthshire South,2.00001E+11,47305054,352995.35,200160,51.6982095,-2.6815173,7A6,W11000028,Bwrdd Iechyd Prifysgol Aneurin Bevan,Aneurin Bevan University Health Board,W06000021,W02000342,W05001796,W01001583,W92000004,Cymru,Wales,326,165,MULTIPOINT ((352995.35 200160))
gpmainsites_ogl.172,W94001,Mostyn House Medical Practice,0,CC105,Conwy West,50000008328,46652544,278651,382135,53.3222019,-3.82329,7A1,W11000023,Bwrdd Iechyd Prifysgol Betsi Cadwaladr,Betsi Cadwaladr University Health Board,W06000003,W02000027,W05001430,W01000186,W92000004,Cymru,Wales,327,166,MULTIPOINT ((278651 382135))
gpmainsites_ogl.173,W94002,Canolfan Iechyd Amlwch,1,CC101,Anglesey,10024357259,18300443,244129.07,393061.2,53.4112899,-4.346542,7A1,W11000023,Bwrdd Iechyd Prifysgol Betsi Cadwaladr,Betsi Cadwaladr University Health Board,W06000001,W02000001,W05001504,W01000003,W92000004,Cymru,Wales,328,167,MULTIPOINT ((244129.07 393061.2))
gpmainsites_ogl.174,W94003,Plas Menai Surgery,0,CC105,Conwy West,10024338762,46652575,268252,375076,53.2563012,-3.9763845,7A1,W11000023,Bwrdd Iechyd Prifysgol Betsi Cadwaladr,Betsi Cadwaladr University Health Board,W06000003,W02000039,W05001405,W01000123,W92000004,Cymru,Wales,330,168,MULTIPOINT ((268252 375076))
gpmainsites_ogl.175,W94004,Canolfan Goffa Ffestiniog,0,CC107,Dwyfor and North Meirionnydd,2.00003E+11,46404234,270234.15,345565.43,52.9916714,-3.9347445,7A1,W11000023,Bwrdd Iechyd Prifysgol Betsi Cadwaladr,Betsi Cadwaladr University Health Board,W06000002,W02000018,W05001528,W01000065,W92000004,Cymru,Wales,332,169,MULTIPOINT ((270234.15 345565.43))
gpmainsites_ogl.176,W94005,Meddygfa Betws y Coed,0,CC105,Conwy West,10023740259,46605529,278266,356492,53.0917286,-3.8192797,7A1,W11000023,Bwrdd Iechyd Prifysgol Betsi Cadwaladr,Betsi Cadwaladr University Health Board,W06000003,W02000041,W05001404,W01000121,W92000004,Cymru,Wales,335,170,MULTIPOINT ((278266 356492))
gpmainsites_ogl.177,W94006,Parc Glas Surgery,2,CC101,Anglesey,10013459258,18300990,239581,370343,53.2058993,-4.4034079,7A1,W11000023,Bwrdd Iechyd Prifysgol Betsi Cadwaladr,Betsi Cadwaladr University Health Board,W06000001,W02000009,W05001494,W01000007,W92000004,Cymru,Wales,336,171,MULTIPOINT ((239581 370343))
gpmainsites_ogl.178,W94007,Tywyn Health Centre,0,CC109,South Meirionnydd,2.00003E+11,46404186,258111.76,300653.84,52.5851373,-4.0957343,7A1,W11000023,Bwrdd Iechyd Prifysgol Betsi Cadwaladr,Betsi Cadwaladr University Health Board,W06000002,W02000026,W05001553,W01000116,W92000004,Cymru,Wales,339,172,MULTIPOINT ((258111.76 300653.84))
gpmainsites_ogl.179,W94008,Minfor Surgery,0,CC109,South Meirionnydd,2.00003E+11,46403197,260958,316178,52.7253403,-4.0603019,7A1,W11000023,Bwrdd Iechyd Prifysgol Betsi Cadwaladr,Betsi Cadwaladr University Health Board,W06000002,W02000025,W05001508,W01002004,W92000004,Cymru,Wales,341,173,MULTIPOINT ((260958 316178))
gpmainsites_ogl.180,W94009,Beaumaris Health Centre,0,CC101,Anglesey,10013458738,18300766,260579,376248,53.2648676,-4.091837,7A1,W11000023,Bwrdd Iechyd Prifysgol Betsi Cadwaladr,Betsi Cadwaladr University Health Board,W06000001,W02000005,W05001501,W01000005,W92000004,Cymru,Wales,342,174,MULTIPOINT ((260579 376248))
gpmainsites_ogl.181,W94010,Bodnant Surgery,0,CC102,Arfon,2.00003E+11,46400762,257370,372188,53.2275449,-4.1380957,7A1,W11000023,Bwrdd Iechyd Prifysgol Betsi Cadwaladr,Betsi Cadwaladr University Health Board,W06000002,W02000010,W05001517,W01000092,W92000004,Cymru,Wales,343,175,MULTIPOINT ((257370 372188))
gpmainsites_ogl.182,W94011,Treflan Surgery,0,CC107,Dwyfor and North Meirionnydd,10070363221,46401647,237171,334793,52.8858912,-4.4214876,7A1,W11000023,Bwrdd Iechyd Prifysgol Betsi Cadwaladr,Betsi Cadwaladr University Health Board,W06000002,W02000021,W05001538,W01000108,W92000004,Cymru,Wales,344,176,MULTIPOINT ((237171 334793))
gpmainsites_ogl.183,W94015,Llanfairpwll Health Centre,1,CC101,Anglesey,1.00101E+11,18300186,252750,371694,53.2218464,-4.20702,7A1,W11000023,Bwrdd Iechyd Prifysgol Betsi Cadwaladr,Betsi Cadwaladr University Health Board,W06000001,W02000008,W05001492,W01000015,W92000004,Cymru,Wales,347,177,MULTIPOINT ((252750 371694))
gpmainsites_ogl.184,W94016,Llys Meddyg Surgery,1,CC105,Conwy West,1.00101E+11,46600850,278263,377575,53.2811449,-3.8273622,7A1,W11000023,Bwrdd Iechyd Prifysgol Betsi Cadwaladr,Betsi Cadwaladr University Health Board,W06000003,W02000038,W05001408,W01000130,W92000004,Cymru,Wales,349,178,MULTIPOINT ((278263 377575))
gpmainsites_ogl.185,W94017,Llanberis Surgery,2,CC102,Arfon,10070346406,46401278,258039,360010,53.1183325,-4.1226719,7A1,W11000023,Bwrdd Iechyd Prifysgol Betsi Cadwaladr,Betsi Cadwaladr University Health Board,W06000002,W02000014,W05001544,W01000081,W92000004,Cymru,Wales,351,179,MULTIPOINT ((258039 360010))
gpmainsites_ogl.186,W94018,Penrhyn Bay Surgery,1,CC105,Conwy West,10024342195,46607406,281690,381488,53.3170776,-3.7774479,7A1,W11000023,Bwrdd Iechyd Prifysgol Betsi Cadwaladr,Betsi Cadwaladr University Health Board,W06000003,W02000029,W05001426,W01000173,W92000004,Cymru,Wales,354,180,MULTIPOINT ((281690 381488))
gpmainsites_ogl.187,W94019,Craig Y Don Medical Practice,0,CC105,Conwy West,10024340504,46601166,279339,381814,53.3194754,-3.8128445,7A1,W11000023,Bwrdd Iechyd Prifysgol Betsi Cadwaladr,Betsi Cadwaladr University Health Board,W06000003,W02000027,W05001409,W01000132,W92000004,Cymru,Wales,356,181,MULTIPOINT ((279339 381814))
gpmainsites_ogl.188,W94020,Meddygfa Lonfa Surgery,1,CC105,Conwy West,10024340602,46608051,279754,377971,53.2850431,-3.8051613,7A1,W11000023,Bwrdd Iechyd Prifysgol Betsi Cadwaladr,Betsi Cadwaladr University Health Board,W06000003,W02000037,W05001415,W01000176,W92000004,Cymru,Wales,357,182,MULTIPOINT ((279754 377971))
gpmainsites_ogl.189,W94021,Hwb Iechyd Eifionydd,1,CC107,Dwyfor and North Meirionnydd,2.00003E+11,46402508,249582,338097,52.9191844,-4.238719,7A1,W11000023,Bwrdd Iechyd Prifysgol Betsi Cadwaladr,Betsi Cadwaladr University Health Board,W06000002,W02000020,W05001522,W01000061,W92000004,Cymru,Wales,359,183,MULTIPOINT ((249582 338097))
gpmainsites_ogl.190,W94023,Gerafon Surgery,1,CC101,Anglesey,10090598738,18310159,251767.76,382490.67,53.3185491,-4.2267564,7A1,W11000023,Bwrdd Iechyd Prifysgol Betsi Cadwaladr,Betsi Cadwaladr University Health Board,W06000001,W02000005,W05001499,W01000019,W92000004,Cymru,Wales,361,184,MULTIPOINT ((251767.76 382490.67))
gpmainsites_ogl.191,W94024,Meddygfa Gwydir,0,CC105,Conwy West,10024343166,46608026,280156,361712,53.1390565,-3.793023,7A1,W11000023,Bwrdd Iechyd Prifysgol Betsi Cadwaladr,Betsi Cadwaladr University Health Board,W06000003,W02000041,W05001419,W01000134,W92000004,Cymru,Wales,363,185,MULTIPOINT ((280156 361712))
gpmainsites_ogl.192,W94025,Meddygfa Rhydbach,0,CC107,Dwyfor and North Meirionnydd,10070339238,46401556,226189,330953,52.8479695,-4.5824812,7A1,W11000023,Bwrdd Iechyd Prifysgol Betsi Cadwaladr,Betsi Cadwaladr University Health Board,W06000002,W02000023,W05001556,W01001932,W92000004,Cymru,Wales,364,186,MULTIPOINT ((226189 330953))
gpmainsites_ogl.193,W94026,Hwb Iechyd Cybi,1,CC101,Anglesey,2.00003E+11,18301339,224432,382452,53.3098404,-4.6366642,7A1,W11000023,Bwrdd Iechyd Prifysgol Betsi Cadwaladr,Betsi Cadwaladr University Health Board,W06000001,W02000003,W05001503,W01000016,W92000004,Cymru,Wales,366,187,MULTIPOINT ((224432 382452))
gpmainsites_ogl.194,W94027,Felinheli & Porthaethwy Surgery,1,CC102,Arfon,10024261065,46400180,251841,366954,53.1790185,-4.2184235,7A1,W11000023,Bwrdd Iechyd Prifysgol Betsi Cadwaladr,Betsi Cadwaladr University Health Board,W06000002,W02000013,W05001512,W01000119,W92000004,Cymru,Wales,368,188,MULTIPOINT ((251841 366954))
gpmainsites_ogl.195,W94028,Yr Hen Orsaf Medical Centre,0,CC102,Arfon,10024261455,46400424,261902.44,366864.32,53.1809203,-4.0679425,7A1,W11000023,Bwrdd Iechyd Prifysgol Betsi Cadwaladr,Betsi Cadwaladr University Health Board,W06000002,W02000012,W05001560,W01000097,W92000004,Cymru,Wales,372,189,MULTIPOINT ((261902.44 366864.32))
gpmainsites_ogl.196,W94029,Coed Y Glyn Surgery,1,CC101,Anglesey,2.00003E+11,18300086,245895.21,375892.04,53.2576065,-4.3116356,7A1,W11000023,Bwrdd Iechyd Prifysgol Betsi Cadwaladr,Betsi Cadwaladr University Health Board,W06000001,W02000006,W05001496,W01000014,W92000004,Cymru,Wales,373,190,MULTIPOINT ((245895.21 375892.04))
gpmainsites_ogl.197,W94030,Meddygfa Hafan Iechyd,0,CC102,Arfon,10024258491,46407318,247905,363200,53.1441902,-4.2754846,7A1,W11000023,Bwrdd Iechyd Prifysgol Betsi Cadwaladr,Betsi Cadwaladr University Health Board,W06000002,W02000015,W05001519,W01000093,W92000004,Cymru,Wales,375,191,MULTIPOINT ((247905 363200))
gpmainsites_ogl.198,W94031,Bodreinallt Surgery,1,CC105,Conwy West,50000007552,46600850,278304.55,377533.18,53.2807788,-3.8267233,7A1,W11000023,Bwrdd Iechyd Prifysgol Betsi Cadwaladr,Betsi Cadwaladr University Health Board,W06000003,W02000038,W05001408,W01000130,W92000004,Cymru,Wales,377,192,MULTIPOINT ((278304.55 377533.18))
gpmainsites_ogl.199,W94032,Bron Meirion,2,CC107,Dwyfor and North Meirionnydd,10070350454,46402661,261046,338806,52.9286429,-4.0686369,7A1,W11000023,Bwrdd Iechyd Prifysgol Betsi Cadwaladr,Betsi Cadwaladr University Health Board,W06000002,W02000022,W05001558,W01000101,W92000004,Cymru,Wales,379,193,MULTIPOINT ((261046 338806))
gpmainsites_ogl.200,W94034,Bron Derw Medical Centre,0,CC102,Arfon,10070361726,46400360,258462,372420,53.2299211,-4.1218525,7A1,W11000023,Bwrdd Iechyd Prifysgol Betsi Cadwaladr,Betsi Cadwaladr University Health Board,W06000002,W02000010,W05001530,W01000076,W92000004,Cymru,Wales,383,194,MULTIPOINT ((258462 372420))
gpmainsites_ogl.201,W94035,Meddygfa Bala Surgery,0,CC109,South Meirionnydd,10070357717,46403069,292836,336010,52.9108098,-3.5950081,7A1,W11000023,Bwrdd Iechyd Prifysgol Betsi Cadwaladr,Betsi Cadwaladr University Health Board,W06000002,W02000024,W05001566,W01000051,W92000004,Cymru,Wales,384,195,MULTIPOINT ((292836 336010))
gpmainsites_ogl.202,W94036,Caerffynnon,0,CC109,South Meirionnydd,10070355376,46403062,272753,317638,52.7413623,-3.8863219,7A1,W11000023,Bwrdd Iechyd Prifysgol Betsi Cadwaladr,Betsi Cadwaladr University Health Board,W06000002,W02000025,W05001524,W01000068,W92000004,Cymru,Wales,386,196,MULTIPOINT ((272753 317638))
gpmainsites_ogl.203,W94037,Ty Doctor,1,CC107,Dwyfor and North Meirionnydd,10070367983,46401650,229997,340379,52.9338356,-4.5309232,7A1,W11000023,Bwrdd Iechyd Prifysgol Betsi Cadwaladr,Betsi Cadwaladr University Health Board,W06000002,W02000021,W05001554,W01000095,W92000004,Cymru,Wales,387,197,MULTIPOINT ((229997 340379))
gpmainsites_ogl.204,W94038,Meddygfa Victoria,1,CC101,Anglesey,2.00003E+11,18300962,224682.99,382236.15,53.3079854,-4.632782,7A1,W11000023,Bwrdd Iechyd Prifysgol Betsi Cadwaladr,Betsi Cadwaladr University Health Board,W06000001,W02000003,W05001503,W01000016,W92000004,Cymru,Wales,389,198,MULTIPOINT ((224682.99 382236.15))
gpmainsites_ogl.205,W94039,Liverpool House,1,CC102,Arfon,10070342592,46400006,252272,359500,53.1121847,-4.2085406,7A1,W11000023,Bwrdd Iechyd Prifysgol Betsi Cadwaladr,Betsi Cadwaladr University Health Board,W06000002,W02000016,W05001565,W01000118,W92000004,Cymru,Wales,392,199,MULTIPOINT ((252272 359500))
gpmainsites_ogl.206,W94043,Gwalchmai Surgery,1,CC101,Anglesey,2.00003E+11,18301039,239240,375810,53.2548944,-4.4112671,7A1,W11000023,Bwrdd Iechyd Prifysgol Betsi Cadwaladr,Betsi Cadwaladr University Health Board,W06000001,W02000007,W05001498,W01000009,W92000004,Cymru,Wales,396,200,MULTIPOINT ((239240 375810))
gpmainsites_ogl.207,W94609,Corwen House,1,CC102,Arfon,10070369636,46400662,246890,353047,53.0527063,-4.2858064,7A1,W11000023,Bwrdd Iechyd Prifysgol Betsi Cadwaladr,Betsi Cadwaladr University Health Board,W06000002,W02000017,W05001559,W01000104,W92000004,Cymru,Wales,400,201,MULTIPOINT ((246890 353047))
gpmainsites_ogl.208,W94622,West Shore Surgery,0,CC105,Conwy West,1.00101E+11,46601143,277476,381716,53.3181667,-3.8407585,7A1,W11000023,Bwrdd Iechyd Prifysgol Betsi Cadwaladr,Betsi Cadwaladr University Health Board,W06000003,W02000028,W05001416,W01000168,W92000004,Cymru,Wales,408,202,MULTIPOINT ((277476 381716))
gpmainsites_ogl.209,W94633,Star Surgery,0,CC101,Anglesey,10090601360,18300972,250279.06,371991.84,53.223831,-4.2441398,7A1,W11000023,Bwrdd Iechyd Prifysgol Betsi Cadwaladr,Betsi Cadwaladr University Health Board,W06000001,W02000009,W05001492,W01000025,W92000004,Cymru,Wales,411,203,MULTIPOINT ((250279.06 371991.84))
gpmainsites_ogl.210,W95001,St Johns Medical Practice,1,CC501,North Cynon,2.00003E+11,47400738,300076,202703,51.7141308,-3.4477548,7A5,W11000030,Bwrdd Iechyd Prifysgol Cwm Taf Morgannwg,Cwm Taf Morgannwg University Health Board,W06000016,W02000253,W05001073,W01001148,W92000004,Cymru,Wales,412,204,MULTIPOINT ((300076 202703))
gpmainsites_ogl.211,W95004,Pont Newydd Medical Centre,0,CC507,South Rhondda,10024277345,47401625,302354,191614,51.6148576,-3.4116902,7A5,W11000030,Bwrdd Iechyd Prifysgol Cwm Taf Morgannwg,Cwm Taf Morgannwg University Health Board,W06000016,W02000271,W05001101,W01001232,W92000004,Cymru,Wales,416,205,MULTIPOINT ((302354 191614))
gpmainsites_ogl.212,W95005,Practice 3 Keir Hardie Health Park,0,CC502,North Merthyr Tydfil,10034662577,25100010,304163,206211,51.7463767,-3.3895838,7A5,W11000030,Bwrdd Iechyd Prifysgol Cwm Taf Morgannwg,Cwm Taf Morgannwg University Health Board,W06000024,W02000286,W05001617,W01001293,W92000004,Cymru,Wales,417,206,MULTIPOINT ((304163 206211))
gpmainsites_ogl.213,W95008,Ty Bryn Surgery,1,CC605,Caerphilly South,43050757,47503467,317631,188768,51.5917191,-3.190433,7A6,W11000028,Bwrdd Iechyd Prifysgol Aneurin Bevan,Aneurin Bevan University Health Board,W06000018,W02000309,W05001652,W01001344,W92000004,Cymru,Wales,421,207,MULTIPOINT ((317631 188768))
gpmainsites_ogl.214,W95009,Llynfi Surgery,1,CC510,Bridgend North Network,1.00101E+11,47600944,285044.6,191446.33,51.6100789,-3.6615326,7A5,W11000030,Bwrdd Iechyd Prifysgol Cwm Taf Morgannwg,Cwm Taf Morgannwg University Health Board,W06000013,W02000219,W05001243,W01001017,W92000004,Cymru,Wales,424,208,MULTIPOINT ((285044.6 191446.33))
gpmainsites_ogl.215,W95010,Oak Tree Surgery,0,CC509,Bridgend East Network,2.00003E+11,47601592,291911,179828,51.5070127,-3.5588364,7A5,W11000030,Bwrdd Iechyd Prifysgol Cwm Taf Morgannwg,Cwm Taf Morgannwg University Health Board,W06000013,W02000233,W05001233,W01000982,W92000004,Cymru,Wales,426,209,MULTIPOINT ((291911 179828))
gpmainsites_ogl.216,W95011,Parc Canol Group Practice,2,CC508,South Taf Ely,2.00004E+11,47410043,308766,186171,51.5670072,-3.3176942,7A5,W11000030,Bwrdd Iechyd Prifysgol Cwm Taf Morgannwg,Cwm Taf Morgannwg University Health Board,W06000016,W02000276,W05001077,W01001162,W92000004,Cymru,Wales,427,210,MULTIPOINT ((308766 186171))
gpmainsites_ogl.217,W95012,Woodlands Surgery,0,CC510,Bridgend North Network,2.00003E+11,47601619,285354.76,194027.42,51.6333402,-3.6579002,7A5,W11000030,Bwrdd Iechyd Prifysgol Cwm Taf Morgannwg,Cwm Taf Morgannwg University Health Board,W06000013,W02000218,W05001236,W01000991,W92000004,Cymru,Wales,430,211,MULTIPOINT ((285354.76 194027.42))
gpmainsites_ogl.219,W95014,Eglwysbach Medical Practice,2,CC504,North Taf Ely,2.00003E+11,47403669,307416,190519,51.6058709,-3.3383136,7A5,W11000030,Bwrdd Iechyd Prifysgol Cwm Taf Morgannwg,Cwm Taf Morgannwg University Health Board,W06000016,W02000272,W05001100,W01001228,W92000004,Cymru,Wales,433,212,MULTIPOINT ((307416 190519))
gpmainsites_ogl.220,W95016,Cwmaman Surgery,1,CC505,South Cynon,1.00101E+11,47400579,300115,199504,51.6853842,-3.4462731,7A5,W11000030,Bwrdd Iechyd Prifysgol Cwm Taf Morgannwg,Cwm Taf Morgannwg University Health Board,W06000016,W02000256,W05001071,W01001141,W92000004,Cymru,Wales,438,213,MULTIPOINT ((300115 199504))
gpmainsites_ogl.221,W95017,The New Surgery,0,CC509,Bridgend East Network,10090052479,47605431,296047.48,181866.87,51.5261171,-3.4998576,7A5,W11000030,Bwrdd Iechyd Prifysgol Cwm Taf Morgannwg,Cwm Taf Morgannwg University Health Board,W06000013,W02000226,W05001249,W01001040,W92000004,Cymru,Wales,440,214,MULTIPOINT ((296047.48 181866.87))
gpmainsites_ogl.222,W95018,Pencoed Medical Centre,1,CC509,Bridgend East Network,2.00002E+11,47600793,296008.75,181412.79,51.5220283,-3.5002815,7A5,W11000030,Bwrdd Iechyd Prifysgol Cwm Taf Morgannwg,Cwm Taf Morgannwg University Health Board,W06000013,W02000226,W05001249,W01001004,W92000004,Cymru,Wales,441,215,MULTIPOINT ((296008.75 181412.79))
gpmainsites_ogl.223,W95019,Tylorstown Surgery,1,CC503,North Rhondda,2.00003E+11,47402290,300993,194744,51.6427542,-3.4322266,7A5,W11000030,Bwrdd Iechyd Prifysgol Cwm Taf Morgannwg,Cwm Taf Morgannwg University Health Board,W06000016,W02000264,W05001113,W01001274,W92000004,Cymru,Wales,443,216,MULTIPOINT ((300993 194744))
gpmainsites_ogl.224,W95020,Hirwaun Medical Centre,0,CC501,North Cynon,10090596355,47400740,295635,205707,51.7403214,-3.5129136,7A5,W11000030,Bwrdd Iechyd Prifysgol Cwm Taf Morgannwg,Cwm Taf Morgannwg University Health Board,W06000016,W02000252,W05001087,W01001188,W92000004,Cymru,Wales,445,217,MULTIPOINT ((295635 205707))
gpmainsites_ogl.225,W95023,Practice 1 Keir Hardie Health Park,0,CC502,North Merthyr Tydfil,10034662577,25100010,304163,206211,51.7463767,-3.3895838,7A5,W11000030,Bwrdd Iechyd Prifysgol Cwm Taf Morgannwg,Cwm Taf Morgannwg University Health Board,W06000024,W02000286,W05001617,W01001293,W92000004,Cymru,Wales,446,218,MULTIPOINT ((304163 206211))
gpmainsites_ogl.226,W95024,Ashgrove Medical Group,2,CC504,North Taf Ely,2.00002E+11,47404697,307265,190416,51.60492,-3.340466,7A5,W11000030,Bwrdd Iechyd Prifysgol Cwm Taf Morgannwg,Cwm Taf Morgannwg University Health Board,W06000016,W02000272,W05001100,W01001228,W92000004,Cymru,Wales,447,219,MULTIPOINT ((307265 190416))
gpmainsites_ogl.227,W95025,Old School Surgery,1,CC508,South Taf Ely,1.00101E+11,47405363,303554,181504,51.5241879,-3.3915874,7A5,W11000030,Bwrdd Iechyd Prifysgol Cwm Taf Morgannwg,Cwm Taf Morgannwg University Health Board,W06000016,W02000282,W05001097,W01001226,W92000004,Cymru,Wales,450,220,MULTIPOINT ((303554 181504))
gpmainsites_ogl.229,W95027,De Winton Field Practice,0,CC507,South Rhondda,2.00004E+11,47401688,299371,192819,51.6251638,-3.4551054,7A5,W11000030,Bwrdd Iechyd Prifysgol Cwm Taf Morgannwg,Cwm Taf Morgannwg University Health Board,W06000016,W02000267,W05001105,W01001248,W92000004,Cymru,Wales,455,221,MULTIPOINT ((299371 192819))
gpmainsites_ogl.230,W95029,Meddygfa Glan Cynon Surgery,0,CC505,South Cynon,10094102499,47401063,304966.27,198917.23,51.6809537,-3.3759618,7A5,W11000030,Bwrdd Iechyd Prifysgol Cwm Taf Morgannwg,Cwm Taf Morgannwg University Health Board,W06000016,W02000257,W05001092,W01001208,W92000004,Cymru,Wales,457,222,MULTIPOINT ((304966.27 198917.23))
gpmainsites_ogl.231,W95030,St. David's Surgery,1,CC503,North Rhondda,1.00101E+11,47403218,297074,195008,51.6444228,-3.4889206,7A5,W11000030,Bwrdd Iechyd Prifysgol Cwm Taf Morgannwg,Cwm Taf Morgannwg University Health Board,W06000016,W02000262,W05001094,W01001962,W92000004,Cymru,Wales,460,223,MULTIPOINT ((297074 195008))
gpmainsites_ogl.232,W95031,Cwm Garw Practice,2,CC510,Bridgend North Network,1.00101E+11,47601540,290246,191845,51.6147039,-3.5865708,7A5,W11000030,Bwrdd Iechyd Prifysgol Cwm Taf Morgannwg,Cwm Taf Morgannwg University Health Board,W06000013,W02000221,W05001240,W01001042,W92000004,Cymru,Wales,462,224,MULTIPOINT ((290246 191845))
gpmainsites_ogl.233,W95032,Treharris Primary Care Centre,1,CC506,South Merthyr Tydfil,10034659922,25100239,310047,197195,51.6663105,-3.3020526,7A5,W11000030,Bwrdd Iechyd Prifysgol Cwm Taf Morgannwg,Cwm Taf Morgannwg University Health Board,W06000024,W02000289,W05001625,W01001322,W92000004,Cymru,Wales,465,225,MULTIPOINT ((310047 197195))
gpmainsites_ogl.234,W95034,Cornelly Surgery,1,CC511,Bridgend West Network,1.00101E+11,47600671,281791,181559,51.5205428,-3.7051695,7A5,W11000030,Bwrdd Iechyd Prifysgol Cwm Taf Morgannwg,Cwm Taf Morgannwg University Health Board,W06000013,W02000227,W05001239,W01000999,W92000004,Cymru,Wales,469,226,MULTIPOINT ((281791 181559))
gpmainsites_ogl.235,W95035,Riversdale House,0,CC509,Bridgend East Network,2.00003E+11,47601040,290490,179487,51.5036739,-3.5791981,7A5,W11000030,Bwrdd Iechyd Prifysgol Cwm Taf Morgannwg,Cwm Taf Morgannwg University Health Board,W06000013,W02000231,W05001248,W01001035,W92000004,Cymru,Wales,471,227,MULTIPOINT ((290490 179487))
gpmainsites_ogl.236,W95036,Talbot Green Group Practice,1,CC508,South Taf Ely,2.00004E+11,47404351,304193,182837,51.5362792,-3.3827429,7A5,W11000030,Bwrdd Iechyd Prifysgol Cwm Taf Morgannwg,Cwm Taf Morgannwg University Health Board,W06000016,W02000281,W05001089,W01001243,W92000004,Cymru,Wales,472,228,MULTIPOINT ((304193 182837))
gpmainsites_ogl.237,W95037,Tynycoed Surgery,0,CC510,Bridgend North Network,2.00003E+11,47601036,290257,183672,51.5412442,-3.5838582,7A5,W11000030,Bwrdd Iechyd Prifysgol Cwm Taf Morgannwg,Cwm Taf Morgannwg University Health Board,W06000013,W02000224,W05001255,W01000987,W92000004,Cymru,Wales,474,229,MULTIPOINT ((290257 183672))
gpmainsites_ogl.239,W95041,Porthcawl Medical Centre,0,CC511,Bridgend West Network,10094050096,47602271,283044.75,177712.45,51.4862322,-3.6858315,7A5,W11000030,Bwrdd Iechyd Prifysgol Cwm Taf Morgannwg,Cwm Taf Morgannwg University Health Board,W06000013,W02000236,W05001251,W01001030,W92000004,Cymru,Wales,477,230,MULTIPOINT ((283044.75 177712.45))
gpmainsites_ogl.240,W95042,Abercynon Medical Centre,0,CC505,South Cynon,2.00003E+11,47401617,308263,194947,51.6458144,-3.3272498,7A5,W11000030,Bwrdd Iechyd Prifysgol Cwm Taf Morgannwg,Cwm Taf Morgannwg University Health Board,W06000016,W02000263,W05001072,W01001145,W92000004,Cymru,Wales,479,231,MULTIPOINT ((308263 194947))
gpmainsites_ogl.241,W95043,Nelson Surgery,0,CC604,Caerphilly North,43091556,47503442,310874,195403,51.6503338,-3.2896401,7A6,W11000028,Bwrdd Iechyd Prifysgol Aneurin Bevan,Aneurin Bevan University Health Board,W06000018,W02000302,W05001665,W01001378,W92000004,Cymru,Wales,480,232,MULTIPOINT ((310874 195403))
gpmainsites_ogl.242,W95044,Park Lane Surgery,0,CC507,South Rhondda,2.00004E+11,47410260,300773,187566,51.5781965,-3.4333721,7A5,W11000030,Bwrdd Iechyd Prifysgol Cwm Taf Morgannwg,Cwm Taf Morgannwg University Health Board,W06000016,W02000275,W05001106,W01001249,W92000004,Cymru,Wales,481,233,MULTIPOINT ((300773 187566))
gpmainsites_ogl.243,W95046,Tonyfelin Medical Centre,0,CC605,Caerphilly South,43024453,47500644,315845,187283,51.5781057,-3.2158525,7A6,W11000028,Bwrdd Iechyd Prifysgol Aneurin Bevan,Aneurin Bevan University Health Board,W06000018,W02000311,W05001663,W01001373,W92000004,Cymru,Wales,483,234,MULTIPOINT ((315845 187283))
gpmainsites_ogl.244,W95049,Nantgarw Road Medical Centre,1,CC605,Caerphilly South,43087450,47505216,313728.61,186534.7,51.5710585,-3.2462034,7A6,W11000028,Bwrdd Iechyd Prifysgol Aneurin Bevan,Aneurin Bevan University Health Board,W06000018,W02000313,W05001669,W01001398,W92000004,Cymru,Wales,485,235,MULTIPOINT ((313728.61 186534.7))
gpmainsites_ogl.245,W95050,Meddygfa Gelligaer Surgery,0,CC604,Caerphilly North,43165143,47504408,313618,196843,51.6637061,-3.2503434,7A6,W11000028,Bwrdd Iechyd Prifysgol Aneurin Bevan,Aneurin Bevan University Health Board,W06000018,W02000297,W05001673,W01001418,W92000004,Cymru,Wales,488,236,MULTIPOINT ((313618 196843))
gpmainsites_ogl.246,W95051,Ferndale Medical Centre,1,CC503,North Rhondda,2.00004E+11,47402500,299915,196926,51.662176,-3.4484253,7A5,W11000030,Bwrdd Iechyd Prifysgol Cwm Taf Morgannwg,Cwm Taf Morgannwg University Health Board,W06000016,W02000260,W05001082,W01001175,W92000004,Cymru,Wales,490,237,MULTIPOINT ((299915 196926))
gpmainsites_ogl.247,W95054,Forest View Health,2,CC503,North Rhondda,10023823191,47401632,295001,197314,51.6647661,-3.5195625,7A5,W11000030,Bwrdd Iechyd Prifysgol Cwm Taf Morgannwg,Cwm Taf Morgannwg University Health Board,W06000016,W02000261,W05001112,W01001273,W92000004,Cymru,Wales,493,238,MULTIPOINT ((295001 197314))
gpmainsites_ogl.248,W95057,Penygraig Surgery,0,CC507,South Rhondda,1.00101E+11,47402338,299943,191384,51.6123673,-3.4464351,7A5,W11000030,Bwrdd Iechyd Prifysgol Cwm Taf Morgannwg,Cwm Taf Morgannwg University Health Board,W06000016,W02000269,W05001095,W01001220,W92000004,Cymru,Wales,498,239,MULTIPOINT ((299943 191384))
gpmainsites_ogl.249,W95058,Taff Vale Practice,2,CC504,North Taf Ely,2.00003E+11,47404007,309132,188272,51.5859518,-3.3129599,7A5,W11000030,Bwrdd Iechyd Prifysgol Cwm Taf Morgannwg,Cwm Taf Morgannwg University Health Board,W06000016,W02000273,W05001102,W01001185,W92000004,Cymru,Wales,499,240,MULTIPOINT ((309132 188272))
gpmainsites_ogl.250,W95059,Court House Medical Centre,0,CC605,Caerphilly South,43089366,47501939,315697,187984,51.5843851,-3.2181565,7A6,W11000028,Bwrdd Iechyd Prifysgol Aneurin Bevan,Aneurin Bevan University Health Board,W06000018,W02000311,W05001663,W01001372,W92000004,Cymru,Wales,505,241,MULTIPOINT ((315697 187984))
gpmainsites_ogl.251,W95060,Taffs Well Medical Centre,1,CC508,South Taf Ely,2.00003E+11,47403795,312201,183534,51.543848,-3.2674877,7A5,W11000030,Bwrdd Iechyd Prifysgol Cwm Taf Morgannwg,Cwm Taf Morgannwg University Health Board,W06000016,W02000277,W05001103,W01001241,W92000004,Cymru,Wales,506,242,MULTIPOINT ((312201 183534))
gpmainsites_ogl.252,W95062,St Andrews Surgery,0,CC507,South Rhondda,1.00101E+11,47402160,299214,192815,51.6250999,-3.4573715,7A5,W11000030,Bwrdd Iechyd Prifysgol Cwm Taf Morgannwg,Cwm Taf Morgannwg University Health Board,W06000016,W02000267,W05001105,W01001247,W92000004,Cymru,Wales,508,243,MULTIPOINT ((299214 192815))
gpmainsites_ogl.253,W95063,Heathbridge House,0,CC511,Bridgend West Network,10013375090,47601218,283372.31,182667.66,51.5308363,-3.6827551,7A5,W11000030,Bwrdd Iechyd Prifysgol Cwm Taf Morgannwg,Cwm Taf Morgannwg University Health Board,W06000013,W02000225,W05001253,W01001050,W92000004,Cymru,Wales,509,244,MULTIPOINT ((283372.31 182667.66))
gpmainsites_ogl.254,W95064,Bron y Garn Surgery,0,CC510,Bridgend North Network,10090816760,47601080,284486,191572,51.611094,-3.6696375,7A5,W11000030,Bwrdd Iechyd Prifysgol Cwm Taf Morgannwg,Cwm Taf Morgannwg University Health Board,W06000013,W02000219,W05001243,W01001017,W92000004,Cymru,Wales,510,245,MULTIPOINT ((284486 191572))
gpmainsites_ogl.255,W95065,Oakfield Surgery,1,CC604,Caerphilly North,43018554,47502759,314649,194378,51.6417051,-3.2348371,7A6,W11000028,Bwrdd Iechyd Prifysgol Aneurin Bevan,Aneurin Bevan University Health Board,W06000018,W02000302,W05001678,W01001433,W92000004,Cymru,Wales,511,246,MULTIPOINT ((314649 194378))
gpmainsites_ogl.257,W95068,Bryntirion Surgery,1,CC604,Caerphilly North,43091558,47503788,314791,199487,51.6876524,-3.2340332,7A6,W11000028,Bwrdd Iechyd Prifysgol Aneurin Bevan,Aneurin Bevan University Health Board,W06000018,W02000293,W05001649,W01001337,W92000004,Cymru,Wales,514,247,MULTIPOINT ((314791 199487))
gpmainsites_ogl.258,W95070,Bridgend Group Practice,3,CC509,Bridgend East Network,2.00003E+11,47601040,290527.55,179357.6,51.5025181,-3.5786171,7A5,W11000030,Bwrdd Iechyd Prifysgol Cwm Taf Morgannwg,Cwm Taf Morgannwg University Health Board,W06000013,W02000234,W05001248,W01001036,W92000004,Cymru,Wales,518,248,MULTIPOINT ((290527.55 179357.6))
gpmainsites_ogl.259,W95072,Pontcae Medical Practice,0,CC506,South Merthyr Tydfil,2.00003E+11,25100199,304543,206196,51.7463069,-3.3840772,7A5,W11000030,Bwrdd Iechyd Prifysgol Cwm Taf Morgannwg,Cwm Taf Morgannwg University Health Board,W06000024,W02000286,W05001617,W01001293,W92000004,Cymru,Wales,524,249,MULTIPOINT ((304543 206196))
gpmainsites_ogl.260,W95073,The Village Surgery,0,CC605,Caerphilly South,43178823,47502941,314806,190428,51.6062207,-3.2316074,7A6,W11000028,Bwrdd Iechyd Prifysgol Aneurin Bevan,Aneurin Bevan University Health Board,W06000018,W02000308,W05001660,W01001367,W92000004,Cymru,Wales,525,250,MULTIPOINT ((314806 190428))
gpmainsites_ogl.261,W95078,South Street Surgery,0,CC604,Caerphilly North,43024348,47503289,314929,199675,51.6893633,-3.2320832,7A6,W11000028,Bwrdd Iechyd Prifysgol Aneurin Bevan,Aneurin Bevan University Health Board,W06000018,W02000293,W05001649,W01001338,W92000004,Cymru,Wales,527,251,MULTIPOINT ((314929 199675))
gpmainsites_ogl.262,W95081,Meddygfa Cwm Rhymni Practice,1,CC604,Caerphilly North,43172708,47504280,311448,207367,51.7579678,-3.2843865,7A6,W11000028,Bwrdd Iechyd Prifysgol Aneurin Bevan,Aneurin Bevan University Health Board,W06000018,W02000290,W05001664,W01001376,W92000004,Cymru,Wales,533,252,MULTIPOINT ((311448 207367))
gpmainsites_ogl.263,W95086,Morlais Medical Practice,2,CC502,North Merthyr Tydfil,2.00003E+11,25100060,306462,207995,51.7628013,-3.356774,7A5,W11000030,Bwrdd Iechyd Prifysgol Cwm Taf Morgannwg,Cwm Taf Morgannwg University Health Board,W06000024,W02000284,W05001618,W01001298,W92000004,Cymru,Wales,538,253,MULTIPOINT ((306462 207995))
gpmainsites_ogl.264,W95087,Abercwmboi Medical Centre,1,CC505,South Cynon,10023821647,47400795,302418,200053,51.690725,-3.413125,7A5,W11000030,Bwrdd Iechyd Prifysgol Cwm Taf Morgannwg,Cwm Taf Morgannwg University Health Board,W06000016,W02000256,W05001071,W01001142,W92000004,Cymru,Wales,544,254,MULTIPOINT ((302418 200053))
gpmainsites_ogl.265,W95295,Cwm Gwrydd Medical Centre,0,CC507,South Rhondda,10023821468,47404391,297931,189069,51.5911992,-3.4748093,7A5,W11000030,Bwrdd Iechyd Prifysgol Cwm Taf Morgannwg,Cwm Taf Morgannwg University Health Board,W06000016,W02000274,W05001083,W01001178,W92000004,Cymru,Wales,548,255,MULTIPOINT ((297931 189069))
gpmainsites_ogl.266,W95633,Foundry Town Clinic,1,CC501,North Cynon,10024274941,47400960,300139,202482,51.7121557,-3.4467799,7A5,W11000030,Bwrdd Iechyd Prifysgol Cwm Taf Morgannwg,Cwm Taf Morgannwg University Health Board,W06000016,W02000254,W05001073,W01001150,W92000004,Cymru,Wales,557,256,MULTIPOINT ((300139 202482))
gpmainsites_ogl.267,W95645,Nantymoel Surgery,0,CC510,Bridgend North Network,1.00101E+11,47601128,293701.86,192317.86,51.6196199,-3.5368209,7A5,W11000030,Bwrdd Iechyd Prifysgol Cwm Taf Morgannwg,Cwm Taf Morgannwg University Health Board,W06000013,W02000220,W05001244,W01001025,W92000004,Cymru,Wales,567,257,MULTIPOINT ((293701.86 192317.86))
gpmainsites_ogl.268,W95647,Practice 2 Keir Hardie Health Park,0,CC502,North Merthyr Tydfil,10034662577,25100010,304163,206211,51.7463767,-3.3895838,7A5,W11000030,Bwrdd Iechyd Prifysgol Cwm Taf Morgannwg,Cwm Taf Morgannwg University Health Board,W06000024,W02000286,W05001617,W01001293,W92000004,Cymru,Wales,568,258,MULTIPOINT ((304163 206211))
gpmainsites_ogl.269,W96001,Montgomery Medical Practice,1,CC702,North Powys,10006971520,26200591,322274,296303,52.5590045,-3.1479512,7A7,W11000024,Bwrdd Iechyd Addysgu Powys,Powys Teaching Health Board,W06000023,W02000101,W05001130,W01000476,W92000004,Cymru,Wales,570,259,MULTIPOINT ((322274 296303))
gpmainsites_ogl.270,W96002,Pengorof Surgery,2,CC703,South Powys,10006970891,4102045,278289.7,209972.29,51.7751527,-3.7655019,7A7,W11000024,Bwrdd Iechyd Addysgu Powys,Powys Teaching Health Board,W06000023,W02000416,W05001127,W01001899,W92000004,Cymru,Wales,572,260,MULTIPOINT ((278289.7 209972.29))
gpmainsites_ogl.271,W96003,Ty Henry Vaughan,1,CC703,South Powys,10011752266,4101146,304216.4,228615.28,51.9477637,-3.3950224,7A7,W11000024,Bwrdd Iechyd Addysgu Powys,Powys Teaching Health Board,W06000023,W02000113,W05001121,W01000489,W92000004,Cymru,Wales,575,261,MULTIPOINT ((304216.4 228615.28))
gpmainsites_ogl.272,W96004,Wylcwm Street Surgery,0,CC701,Mid Powys,10006970001,30900731,328681.4,272387.12,52.3449135,-3.0483356,7A7,W11000024,Bwrdd Iechyd Addysgu Powys,Powys Teaching Health Board,W06000023,W02000107,W05001138,W01000449,W92000004,Cymru,Wales,577,262,MULTIPOINT ((328681.4 272387.12))
gpmainsites_ogl.273,W96005,Arwystli Medical Practice,1,CC702,North Powys,10006971491,26200632,295406.1,284380.02,52.4473498,-3.540393,7A7,W11000024,Bwrdd Iechyd Addysgu Powys,Powys Teaching Health Board,W06000023,W02000106,W05001153,W01000467,W92000004,Cymru,Wales,578,263,MULTIPOINT ((295406.1 284380.02))
gpmainsites_ogl.274,W96006,Rhayader Group Practice,0,CC701,Mid Powys,1.00101E+11,30900742,297268.6,268011.13,52.3005946,-3.5079796,7A7,W11000024,Bwrdd Iechyd Addysgu Powys,Powys Teaching Health Board,W06000023,W02000108,W05001166,W01000487,W92000004,Cymru,Wales,580,264,MULTIPOINT ((297268.6 268011.13))
gpmainsites_ogl.275,W96007,Builth Wells Medical Practice,1,CC701,Mid Powys,10011738583,4114521,303273.4,251189.62,52.1504986,-3.4151341,7A7,W11000024,Bwrdd Iechyd Addysgu Powys,Powys Teaching Health Board,W06000023,W02000110,W05001123,W01000432,W92000004,Cymru,Wales,581,265,MULTIPOINT ((303273.4 251189.62))
gpmainsites_ogl.276,W96009,Caereinion Medical Practice,0,CC702,North Powys,10011763218,85309859,310489.8,306592.63,52.649668,-3.3245203,7A7,W11000024,Bwrdd Iechyd Addysgu Powys,Powys Teaching Health Board,W06000023,W02000102,W05001147,W01000460,W92000004,Cymru,Wales,583,266,MULTIPOINT ((310489.8 306592.63))
gpmainsites_ogl.277,W96010,Welshpool Medical Centre,1,CC702,North Powys,1.00101E+11,26204104,322994.4,307812.73,52.662556,-3.1400091,7A7,W11000024,Bwrdd Iechyd Addysgu Powys,Powys Teaching Health Board,W06000023,W02000099,W05001173,W01000499,W92000004,Cymru,Wales,584,267,MULTIPOINT ((322994.4 307812.73))
gpmainsites_ogl.278,W96011,Iechyd Bro Ddyfi / Dyfi Valley Health,0,CC702,North Powys,10011801060,85314743,275065.4,300928.1,52.5917635,-3.8457503,7A7,W11000024,Bwrdd Iechyd Addysgu Powys,Powys Teaching Health Board,W06000023,W02000100,W05001158,W01000473,W92000004,Cymru,Wales,586,268,MULTIPOINT ((275065.4 300928.1))
gpmainsites_ogl.279,W96012,Llanfyllin Group Practice,2,CC702,North Powys,10011771241,26203252,314201.7,319592.18,52.7671003,-3.2730636,7A7,W11000024,Bwrdd Iechyd Addysgu Powys,Powys Teaching Health Board,W06000023,W02000097,W05001148,W01000461,W92000004,Cymru,Wales,588,269,MULTIPOINT ((314201.7 319592.18))
gpmainsites_ogl.280,W96013,Llandrindod Wells Medical Centre,0,CC701,Mid Powys,10011735086,30900846,306111.1,260917.72,52.2384241,-3.3763707,7A7,W11000024,Bwrdd Iechyd Addysgu Powys,Powys Teaching Health Board,W06000023,W02000109,W05001143,W01000456,W92000004,Cymru,Wales,592,270,MULTIPOINT ((306111.1 260917.72))
gpmainsites_ogl.281,W96015,Newtown Medical Practice,0,CC702,North Powys,10011780312,26200533,310785.1,291328.55,52.5125322,-3.3160413,7A7,W11000024,Bwrdd Iechyd Addysgu Powys,Powys Teaching Health Board,W06000023,W02000104,W05001161,W01000480,W92000004,Cymru,Wales,595,271,MULTIPOINT ((310785.1 291328.55))
gpmainsites_ogl.282,W96016,War Memorial Health Centre,0,CC703,South Powys,10011788068,4101863,322059.6,218216.02,51.8570727,-3.1331165,7A7,W11000024,Bwrdd Iechyd Addysgu Powys,Powys Teaching Health Board,W06000023,W02000114,W05001126,W01001903,W92000004,Cymru,Wales,596,272,MULTIPOINT ((322059.6 218216.02))
gpmainsites_ogl.283,W96017,Hay on Wye Health Centre,1,CC703,South Powys,10011758271,4107899,322933,241915.08,52.0702269,-3.1257622,7A7,W11000024,Bwrdd Iechyd Addysgu Powys,Powys Teaching Health Board,W06000023,W02000111,W05001135,W01000446,W92000004,Cymru,Wales,598,273,MULTIPOINT ((322933 241915.08))
gpmainsites_ogl.284,W96438,Presteigne Medical Practice,0,CC701,Mid Powys,10011741895,30900904,331687.1,264260.4,52.2722455,-3.0025697,7A7,W11000024,Bwrdd Iechyd Addysgu Powys,Powys Teaching Health Board,W06000023,W02000107,W05001165,W01000486,W92000004,Cymru,Wales,600,274,MULTIPOINT ((331687.1 264260.4))
gpmainsites_ogl.285,W97001,West Quay Medical Centre,1,CC431,Central Vale,10091914517,41500510,311024.17,167492.56,51.399461,-3.2804098,7A4,W11000029,Bwrdd Iechyd Prifysgol Caerdydd a'r Fro,Cardiff and Vale University Health Board,W06000014,W02000251,W05001380,W01001066,W92000004,Cymru,Wales,601,275,MULTIPOINT ((311024.17 167492.56))
gpmainsites_ogl.286,W97002,Roathwell Surgery,0,CC412,Cardiff South East,1.00101E+11,5804599,319654.75,177193.99,51.4879656,-3.158579,7A4,W11000029,Bwrdd Iechyd Prifysgol Caerdydd a'r Fro,Cardiff and Vale University Health Board,W06000015,W02000402,W05001270,W01001698,W92000004,Cymru,Wales,603,276,MULTIPOINT ((319654.75 177193.99))
gpmainsites_ogl.287,W97003,Redlands Surgery,0,CC432,Eastern Vale,2.00003E+11,41500787,317612.27,171279.61,51.4345025,-3.1866098,7A4,W11000029,Bwrdd Iechyd Prifysgol Caerdydd a'r Fro,Cardiff and Vale University Health Board,W06000014,W02000241,W05001400,W01001130,W92000004,Cymru,Wales,605,277,MULTIPOINT ((317612.27 171279.61))
gpmainsites_ogl.288,W97005,Llandaff Fields Medical Practice,0,CC422,Cardiff South West,2.00003E+11,5802093,317072,176424,51.4806701,-3.1955879,7A4,W11000029,Bwrdd Iechyd Prifysgol Caerdydd a'r Fro,Cardiff and Vale University Health Board,W06000015,W02000408,W05001293,W01001857,W92000004,Cymru,Wales,606,278,MULTIPOINT ((317072 176424))
gpmainsites_ogl.289,W97006,Brynderwen Surgery,1,CC411,Cardiff East,2.00003E+11,5800535,323606.23,181270.48,51.5251612,-3.1025633,7A4,W11000029,Bwrdd Iechyd Prifysgol Caerdydd a'r Fro,Cardiff and Vale University Health Board,W06000015,W02000377,W05001296,W01001878,W92000004,Cymru,Wales,608,279,MULTIPOINT ((323606.23 181270.48))
gpmainsites_ogl.290,W97007,Cloughmore Medical Centre,0,CC412,Cardiff South East,2.00002E+11,5804629,320646,176516,51.482011,-3.1441533,7A4,W11000029,Bwrdd Iechyd Prifysgol Caerdydd a'r Fro,Cardiff and Vale University Health Board,W06000015,W02000403,W05001295,W01001870,W92000004,Cymru,Wales,611,280,MULTIPOINT ((320646 176516))
gpmainsites_ogl.291,W97008,Llan Healthcare,1,CC411,Cardiff East,10094245721,5803401,320193.23,180095.12,51.514122,-3.1514834,7A4,W11000029,Bwrdd Iechyd Prifysgol Caerdydd a'r Fro,Cardiff and Vale University Health Board,W06000015,W02000383,W05001286,W01001813,W92000004,Cymru,Wales,612,281,MULTIPOINT ((320193.23 180095.12))
gpmainsites_ogl.292,W97009,Cathays Surgery,0,CC412,Cardiff South East,1.00101E+11,5800331,318030.35,178024.49,51.4951979,-3.1821624,7A4,W11000029,Bwrdd Iechyd Prifysgol Caerdydd a'r Fro,Cardiff and Vale University Health Board,W06000015,W02000394,W05001274,W01001722,W92000004,Cymru,Wales,614,282,MULTIPOINT ((318030.35 178024.49))
gpmainsites_ogl.293,W97010,Cyncoed Medical Practice,0,CC421,Cardiff North,10008904830,5803888,320292.8,181915.06,51.5304967,-3.1504611,7A4,W11000029,Bwrdd Iechyd Prifysgol Caerdydd a'r Fro,Cardiff and Vale University Health Board,W06000015,W02000369,W05001290,W01001844,W92000004,Cymru,Wales,615,283,MULTIPOINT ((320292.8 181915.06))
gpmainsites_ogl.294,W97011,Penarth Healthcare Partnership,0,CC432,Eastern Vale,64011777,41501704,317886,171296,51.4346896,-3.1826767,7A4,W11000029,Bwrdd Iechyd Prifysgol Caerdydd a'r Fro,Cardiff and Vale University Health Board,W06000014,W02000241,W05001400,W01001130,W92000004,Cymru,Wales,616,284,MULTIPOINT ((317886 171296))
gpmainsites_ogl.295,W97013,Llanishen Court Surgery,0,CC421,Cardiff North,2.00003E+11,5801220,317664,181744,51.5285819,-3.1883091,7A4,W11000029,Bwrdd Iechyd Prifysgol Caerdydd a'r Fro,Cardiff and Vale University Health Board,W06000015,W02000371,W05001284,W01001791,W92000004,Cymru,Wales,617,285,MULTIPOINT ((317664 181744))
gpmainsites_ogl.296,W97014,Meddygfa Albany Surgery,0,CC412,Cardiff South East,10023546507,5800398,318750.79,177663.35,51.4920555,-3.1717035,7A4,W11000029,Bwrdd Iechyd Prifysgol Caerdydd a'r Fro,Cardiff and Vale University Health Board,W06000015,W02000399,W05001289,W01001829,W92000004,Cymru,Wales,618,286,MULTIPOINT ((318750.79 177663.35))
gpmainsites_ogl.297,W97015,North Cardiff Medical Centre,1,CC421,Cardiff North,2.00001E+11,5800695,317248,182767,51.5377173,-3.1945458,7A4,W11000029,Bwrdd Iechyd Prifysgol Caerdydd a'r Fro,Cardiff and Vale University Health Board,W06000015,W02000368,W05001281,W01001795,W92000004,Cymru,Wales,619,287,MULTIPOINT ((317248 182767))
gpmainsites_ogl.298,W97016,Taff Riverside Practice,0,CC422,Cardiff South West,2.00003E+11,5802093,317072,176424,51.4806701,-3.1955879,7A4,W11000029,Bwrdd Iechyd Prifysgol Caerdydd a'r Fro,Cardiff and Vale University Health Board,W06000015,W02000408,W05001293,W01001857,W92000004,Cymru,Wales,621,288,MULTIPOINT ((317072 176424))
gpmainsites_ogl.300,W97018,St Davids Court Surgery,0,CC422,Cardiff South West,1.00101E+11,5800521,317066,176516,51.4814963,-3.1956959,7A4,W11000029,Bwrdd Iechyd Prifysgol Caerdydd a'r Fro,Cardiff and Vale University Health Board,W06000015,W02000408,W05001293,W01001857,W92000004,Cymru,Wales,623,289,MULTIPOINT ((317066 176516))
gpmainsites_ogl.301,W97020,North Road Medical Practice,1,CC412,Cardiff South East,1.00101E+11,5801470,317200,178551,51.49981,-3.1942446,7A4,W11000029,Bwrdd Iechyd Prifysgol Caerdydd a'r Fro,Cardiff and Vale University Health Board,W06000015,W02000391,W05001278,W01001755,W92000004,Cymru,Wales,626,290,MULTIPOINT ((317200 178551))
gpmainsites_ogl.302,W97021,Birchgrove Surgery,1,CC421,Cardiff North,10008905349,5800290,316752,180458,51.5168874,-3.2011484,7A4,W11000029,Bwrdd Iechyd Prifysgol Caerdydd a'r Fro,Cardiff and Vale University Health Board,W06000015,W02000378,W05001280,W01001773,W92000004,Cymru,Wales,628,291,MULTIPOINT ((316752 180458))
gpmainsites_ogl.303,W97023,Woodlands Medical Centre,0,CC422,Cardiff South West,1.00101E+11,5800836,312501,175398,51.4707573,-3.2611417,7A4,W11000029,Bwrdd Iechyd Prifysgol Caerdydd a'r Fro,Cardiff and Vale University Health Board,W06000015,W02000409,W05001276,W01001744,W92000004,Cymru,Wales,632,292,MULTIPOINT ((312501 175398))
gpmainsites_ogl.304,W97024,Radyr Medical Centre,0,CC423,Cardiff West,10013747814,5800894,313186,180142,51.5135091,-3.2524504,7A4,W11000029,Bwrdd Iechyd Prifysgol Caerdydd a'r Fro,Cardiff and Vale University Health Board,W06000015,W02000372,W05001291,W01001954,W92000004,Cymru,Wales,633,293,MULTIPOINT ((313186 180142))
gpmainsites_ogl.305,W97025,Whitchurch Road Surgery,0,CC421,Cardiff North,10092985672,5801750,317346.53,179025.59,51.5040978,-3.1922454,7A4,W11000029,Bwrdd Iechyd Prifysgol Caerdydd a'r Fro,Cardiff and Vale University Health Board,W06000015,W02000391,W05001278,W01001757,W92000004,Cymru,Wales,634,294,MULTIPOINT ((317346.53 179025.59))
gpmainsites_ogl.306,W97027,Rumney Primary Care Centre,0,CC411,Cardiff East,10023541364,5800099,321985.49,179216.6,51.5064752,-3.1254652,7A4,W11000029,Bwrdd Iechyd Prifysgol Caerdydd a'r Fro,Cardiff and Vale University Health Board,W06000015,W02000388,W05001294,W01001868,W92000004,Cymru,Wales,635,295,MULTIPOINT ((321985.49 179216.6))
gpmainsites_ogl.307,W97028,Bishops Road Medical Centre,1,CC423,Cardiff West,1.00101E+11,5800146,315502.32,179901.02,51.5116946,-3.2190207,7A4,W11000029,Bwrdd Iechyd Prifysgol Caerdydd a'r Fro,Cardiff and Vale University Health Board,W06000015,W02000386,W05001297,W01001891,W92000004,Cymru,Wales,639,296,MULTIPOINT ((315502.32 179901.02))
gpmainsites_ogl.308,W97031,Afon Elai Partnership,1,CC422,Cardiff South West,10003566218,5802088,315803,176279,51.479179,-3.2138229,7A4,W11000029,Bwrdd Iechyd Prifysgol Caerdydd a'r Fro,Cardiff and Vale University Health Board,W06000015,W02000406,W05001273,W01002023,W92000004,Cymru,Wales,642,297,MULTIPOINT ((315803 176279))
gpmainsites_ogl.309,W97032,Waterfront Medical Centre,0,CC431,Central Vale,64031367,41502365,311909.34,167807.45,51.4024298,-3.2677674,7A4,W11000029,Bwrdd Iechyd Prifysgol Caerdydd a'r Fro,Cardiff and Vale University Health Board,W06000014,W02000248,W05001382,W01001910,W92000004,Cymru,Wales,644,298,MULTIPOINT ((311909.34 167807.45))
gpmainsites_ogl.310,W97033,Penylan Surgery,0,CC421,Cardiff North,1.001E+11,5804703,319285,178155,51.4965519,-3.1641231,7A4,W11000029,Bwrdd Iechyd Prifysgol Caerdydd a'r Fro,Cardiff and Vale University Health Board,W06000015,W02000395,W05001288,W01001824,W92000004,Cymru,Wales,645,299,MULTIPOINT ((319285 178155))
gpmainsites_ogl.311,W97034,Roath House Surgery,1,CC421,Cardiff North,1.00101E+11,5801597,319389,178302,51.4978883,-3.162659,7A4,W11000029,Bwrdd Iechyd Prifysgol Caerdydd a'r Fro,Cardiff and Vale University Health Board,W06000015,W02000395,W05001288,W01001824,W92000004,Cymru,Wales,646,300,MULTIPOINT ((319389 178302))
gpmainsites_ogl.312,W97038,Cowbridge & Vale Medical Practice,0,CC433,Western Vale,64117613,41500929,299489.62,174876.87,51.4639085,-3.4482633,7A4,W11000029,Bwrdd Iechyd Prifysgol Caerdydd a'r Fro,Cardiff and Vale University Health Board,W06000014,W02000238,W05001385,W01001084,W92000004,Cymru,Wales,649,301,MULTIPOINT ((299489.62 174876.87))
gpmainsites_ogl.313,W97040,Ely Bridge Surgery,0,CC422,Cardiff South West,1.00101E+11,5801386,314374,176821,51.4838366,-3.2345271,7A4,W11000029,Bwrdd Iechyd Prifysgol Caerdydd a'r Fro,Cardiff and Vale University Health Board,W06000015,W02000407,W05001276,W01001746,W92000004,Cymru,Wales,650,302,MULTIPOINT ((314374 176821))
gpmainsites_ogl.314,W97041,Crwys Medical Centre,0,CC421,Cardiff North,10008905579,5802087,317991,179027,51.5042045,-3.1829624,7A4,W11000029,Bwrdd Iechyd Prifysgol Caerdydd a'r Fro,Cardiff and Vale University Health Board,W06000015,W02000394,W05001274,W01001726,W92000004,Cymru,Wales,651,303,MULTIPOINT ((317991 179027))
gpmainsites_ogl.315,W97044,Cardiff Bay Surgery,1,CC413,City & Cardiff South,1.00101E+11,5800297,318064.03,174729.37,51.4655806,-3.1809122,7A4,W11000029,Bwrdd Iechyd Prifysgol Caerdydd a'r Fro,Cardiff and Vale University Health Board,W06000015,W02000412,W05001279,W01001761,W92000004,Cymru,Wales,652,304,MULTIPOINT ((318064.03 174729.37))
gpmainsites_ogl.316,W97045,Llantwit Major & Coastal Vale Medical Practice,2,CC433,Western Vale,64006767,41500896,296962.7,168870.08,51.4094606,-3.4828763,7A4,W11000029,Bwrdd Iechyd Prifysgol Caerdydd a'r Fro,Cardiff and Vale University Health Board,W06000014,W02000247,W05001392,W01001107,W92000004,Cymru,Wales,655,305,MULTIPOINT ((296962.7 168870.08))
gpmainsites_ogl.317,W97046,Vale Group Practice,4,CC431,Central Vale,64048192,41500546,310316.21,169337.44,51.4159343,-3.2910508,7A4,W11000029,Bwrdd Iechyd Prifysgol Caerdydd a'r Fro,Cardiff and Vale University Health Board,W06000014,W02000246,W05001389,W01001103,W92000004,Cymru,Wales,658,306,MULTIPOINT ((310316.21 169337.44))
gpmainsites_ogl.318,W97047,Fairwater Health Centre,0,CC423,Cardiff West,10002525545,5801618,313925.97,177594.13,51.4907185,-3.2411667,7A4,W11000029,Bwrdd Iechyd Prifysgol Caerdydd a'r Fro,Cardiff and Vale University Health Board,W06000015,W02000397,W05001277,W01001750,W92000004,Cymru,Wales,663,307,MULTIPOINT ((313925.97 177594.13))
gpmainsites_ogl.319,W97048,Four Elms Medical Centre,1,CC412,Cardiff South East,10003566708,5804252,321554,177427,51.4903276,-3.1312825,7A4,W11000029,Bwrdd Iechyd Prifysgol Caerdydd a'r Fro,Cardiff and Vale University Health Board,W06000015,W02000403,W05001295,W01002021,W92000004,Cymru,Wales,664,308,MULTIPOINT ((321554 177427))
gpmainsites_ogl.320,W97052,Western Vale Family Practice,2,CC433,Western Vale,64104368,41500929,299489.62,174876.87,51.4639085,-3.4482633,7A4,W11000029,Bwrdd Iechyd Prifysgol Caerdydd a'r Fro,Cardiff and Vale University Health Board,W06000014,W02000238,W05001385,W01001084,W92000004,Cymru,Wales,667,309,MULTIPOINT ((299489.62 174876.87))
gpmainsites_ogl.321,W97053,St Isan Road Surgery,0,CC421,Cardiff North,1.00101E+11,5801843,317498,180491,51.5172936,-3.1904072,7A4,W11000029,Bwrdd Iechyd Prifysgol Caerdydd a'r Fro,Cardiff and Vale University Health Board,W06000015,W02000384,W05001280,W01001769,W92000004,Cymru,Wales,670,310,MULTIPOINT ((317498 180491))
gpmainsites_ogl.322,W97055,Dinas Powys Medical Centre,0,CC432,Eastern Vale,64109716,41500664,316440.98,170923.6,51.4311305,-3.203372,7A4,W11000029,Bwrdd Iechyd Prifysgol Caerdydd a'r Fro,Cardiff and Vale University Health Board,W06000014,W02000242,W05001386,W01001088,W92000004,Cymru,Wales,671,311,MULTIPOINT ((316440.98 170923.6))
gpmainsites_ogl.323,W97056,City Surgery,0,CC412,Cardiff South East,1.00101E+11,5800398,318811,177533,51.4908923,-3.1708065,7A4,W11000029,Bwrdd Iechyd Prifysgol Caerdydd a'r Fro,Cardiff and Vale University Health Board,W06000015,W02000399,W05001289,W01001829,W92000004,Cymru,Wales,672,312,MULTIPOINT ((318811 177533))
gpmainsites_ogl.324,W97058,Court Road Surgery,0,CC431,Central Vale,64005613,41500254,312180.71,168521.72,51.408893,-3.2640443,7A4,W11000029,Bwrdd Iechyd Prifysgol Caerdydd a'r Fro,Cardiff and Vale University Health Board,W06000014,W02000248,W05001380,W01001065,W92000004,Cymru,Wales,674,313,MULTIPOINT ((312180.71 168521.72))
gpmainsites_ogl.325,W97060,Clifton Surgery,0,CC412,Cardiff South East,1.00101E+11,5804599,319580.7,177169.31,51.4877331,-3.1596397,7A4,W11000029,Bwrdd Iechyd Prifysgol Caerdydd a'r Fro,Cardiff and Vale University Health Board,W06000015,W02000399,W05001289,W01001833,W92000004,Cymru,Wales,676,314,MULTIPOINT ((319580.7 177169.31))
gpmainsites_ogl.326,W97061,Grange Medical Practice,0,CC413,City & Cardiff South,2.00003E+11,5802268,317526,175320,51.4708119,-3.1887936,7A4,W11000029,Bwrdd Iechyd Prifysgol Caerdydd a'r Fro,Cardiff and Vale University Health Board,W06000015,W02000410,W05001279,W01001767,W92000004,Cymru,Wales,677,315,MULTIPOINT ((317526 175320))
gpmainsites_ogl.327,W97062,Sully Surgery,0,CC431,Central Vale,1.00101E+11,41500839,315386.03,168286.76,51.4072692,-3.2179135,7A4,W11000029,Bwrdd Iechyd Prifysgol Caerdydd a'r Fro,Cardiff and Vale University Health Board,W06000014,W02000244,W05001401,W01001132,W92000004,Cymru,Wales,678,316,MULTIPOINT ((315386.03 168286.76))
gpmainsites_ogl.328,W97063,Corporation Road Surgery,0,CC413,City & Cardiff South,10002530027,5804668,318765,174581,51.4643481,-3.1707895,7A4,W11000029,Bwrdd Iechyd Prifysgol Caerdydd a'r Fro,Cardiff and Vale University Health Board,W06000015,W02000423,W05001271,W01001942,W92000004,Cymru,Wales,679,317,MULTIPOINT ((318765 174581))
gpmainsites_ogl.330,W97065,Pontprennau Medical Centre,1,CC421,Cardiff North,10002509558,5803928,320954.03,182548.16,51.5362809,-3.1410733,7A4,W11000029,Bwrdd Iechyd Prifysgol Caerdydd a'r Fro,Cardiff and Vale University Health Board,W06000015,W02000369,W05001290,W01001842,W92000004,Cymru,Wales,681,318,MULTIPOINT ((320954.03 182548.16))
gpmainsites_ogl.331,W97067,Kings Road Surgery,0,CC422,Cardiff South West,1.00101E+11,5801135,316815,177018,51.4859722,-3.199428,7A4,W11000029,Bwrdd Iechyd Prifysgol Caerdydd a'r Fro,Cardiff and Vale University Health Board,W06000015,W02000400,W05001293,W01001860,W92000004,Cymru,Wales,684,319,MULTIPOINT ((316815 177018))
gpmainsites_ogl.332,W97068,Greenmount Surgery,1,CC422,Cardiff South West,10002508899,5800385,313476,175350,51.470476,-3.2470959,7A4,W11000029,Bwrdd Iechyd Prifysgol Caerdydd a'r Fro,Cardiff and Vale University Health Board,W06000015,W02000411,W05001272,W01001705,W92000004,Cymru,Wales,685,320,MULTIPOINT ((313476 175350))
gpmainsites_ogl.333,W97069,Willowbrook Surgery,0,CC411,Cardiff East,1.00101E+11,5803693,324391.75,181192.34,51.5245647,-3.0912257,7A4,W11000029,Bwrdd Iechyd Prifysgol Caerdydd a'r Fro,Cardiff and Vale University Health Board,W06000015,W02000377,W05001296,W01001877,W92000004,Cymru,Wales,689,321,MULTIPOINT ((324391.75 181192.34))
gpmainsites_ogl.334,W97286,Llandaff North Medical Centre,0,CC423,Cardiff West,10002526039,5801872,314785.71,179281.96,51.5060219,-3.229195,7A4,W11000029,Bwrdd Iechyd Prifysgol Caerdydd a'r Fro,Cardiff and Vale University Health Board,W06000015,W02000389,W05001283,W01001789,W92000004,Cymru,Wales,690,322,MULTIPOINT ((314785.71 179281.96))
gpmainsites_ogl.335,W97291,Butetown Medical Practice,0,CC413,City & Cardiff South,10090716605,5801776,318856.31,175262.55,51.4704882,-3.1696321,7A4,W11000029,Bwrdd Iechyd Prifysgol Caerdydd a'r Fro,Cardiff and Vale University Health Board,W06000015,W02000423,W05001271,W01001699,W92000004,Cymru,Wales,692,323,MULTIPOINT ((318856.31 175262.55))
gpmainsites_ogl.336,W97294,Whitchurch Medical Centre,0,CC423,Cardiff West,2.00003E+11,5801540,314844.52,180618.22,51.5180431,-3.2286714,7A4,W11000029,Bwrdd Iechyd Prifysgol Caerdydd a'r Fro,Cardiff and Vale University Health Board,W06000015,W02000376,W05001297,W01001895,W92000004,Cymru,Wales,693,324,MULTIPOINT ((314844.52 180618.22))
gpmainsites_ogl.337,W97296,Meddygfa Canna Surgery,0,CC422,Cardiff South West,1.00101E+11,5802187,316901.71,176594.24,51.4821755,-3.1980796,7A4,W11000029,Bwrdd Iechyd Prifysgol Caerdydd a'r Fro,Cardiff and Vale University Health Board,W06000015,W02000400,W05001293,W01001861,W92000004,Cymru,Wales,694,325,MULTIPOINT ((316901.71 176594.24))
gpmainsites_ogl.338,W97299,Clare Road Medical Centre,0,CC413,City & Cardiff South,1.00101E+11,5800401,317676,175331,51.4709327,-3.1866371,7A4,W11000029,Bwrdd Iechyd Prifysgol Caerdydd a'r Fro,Cardiff and Vale University Health Board,W06000015,W02000410,W05001279,W01001767,W92000004,Cymru,Wales,695,326,MULTIPOINT ((317676 175331))
gpmainsites_ogl.339,W97611,The Practice Of Health,0,CC431,Central Vale,64041296,41500254,312646.66,168986.38,51.4131425,-3.2574612,7A4,W11000029,Bwrdd Iechyd Prifysgol Caerdydd a'r Fro,Cardiff and Vale University Health Board,W06000014,W02000248,W05001381,W01001069,W92000004,Cymru,Wales,696,327,MULTIPOINT ((312646.66 168986.38))
gpmainsites_ogl.340,W97616,Grangetown Health Centre,0,CC413,City & Cardiff South,1.00101E+11,5800297,318064.03,174729.37,51.4655806,-3.1809122,7A4,W11000029,Bwrdd Iechyd Prifysgol Caerdydd a'r Fro,Cardiff and Vale University Health Board,W06000015,W02000412,W05001279,W01001761,W92000004,Cymru,Wales,700,328,MULTIPOINT ((318064.03 174729.37))
gpmainsites_ogl.341,W97619,Llandaff Surgery,1,CC423,Cardiff West,1.00101E+11,5801033,315482,177901,51.4937122,-3.2188332,7A4,W11000029,Bwrdd Iechyd Prifysgol Caerdydd a'r Fro,Cardiff and Vale University Health Board,W06000015,W02000392,W05001282,W01001781,W92000004,Cymru,Wales,702,329,MULTIPOINT ((315482 177901))
gpmainsites_ogl.342,W98001,Pontardawe Primary Care Centre,0,CC311,Upper Valleys,10014165167,47707157,272504,203930,51.719565,-3.8470989,7A3,W11000031,Bwrdd Iechyd Prifysgol Bae Abertawe,Swansea Bay University Health Board,W06000012,W02000202,W05001706,W01000948,W92000004,Cymru,Wales,705,330,MULTIPOINT ((272504 203930))
gpmainsites_ogl.343,W98002,Dyfed Road Health Centre,0,CC309,Neath,2.00001E+11,47710877,275707,197522,51.6626964,-3.7984702,7A3,W11000031,Bwrdd Iechyd Prifysgol Bae Abertawe,Swansea Bay University Health Board,W06000012,W02000206,W05001704,W01000939,W92000004,Cymru,Wales,706,331,MULTIPOINT ((275707 197522))
gpmainsites_ogl.344,W98003,Cwmfelin Medical Centre,0,CC310,Penderi,10010025926,39107480,265187.12,194589.44,51.6339172,-3.9493505,7A3,W11000031,Bwrdd Iechyd Prifysgol Bae Abertawe,Swansea Bay University Health Board,W06000011,W02000183,W05001041,W01000742,W92000004,Cymru,Wales,707,332,MULTIPOINT ((265187.12 194589.44))
gpmainsites_ogl.345,W98004,Brynhyfryd Medical Centre,0,CC310,Penderi,10091615583,39107449,265495.68,195966.99,51.6463702,-3.9454243,7A3,W11000031,Bwrdd Iechyd Prifysgol Bae Abertawe,Swansea Bay University Health Board,W06000011,W02000176,W05001057,W01000821,W92000004,Cymru,Wales,708,333,MULTIPOINT ((265495.68 195966.99))
gpmainsites_ogl.346,W98005,Llansamlet Surgery,0,CC307,Cwmtawe,1.00101E+11,39100894,269737.23,197476.25,51.6609326,-3.884718,7A3,W11000031,Bwrdd Iechyd Prifysgol Bae Abertawe,Swansea Bay University Health Board,W06000011,W02000177,W05001052,W01000798,W92000004,Cymru,Wales,709,334,MULTIPOINT ((269737.23 197476.25))
gpmainsites_ogl.347,W98006,Castle Surgery,0,CC309,Neath,2.00003E+11,47718152,275475,197796,51.6651074,-3.8019206,7A3,W11000031,Bwrdd Iechyd Prifysgol Bae Abertawe,Swansea Bay University Health Board,W06000012,W02000206,W05001704,W01000938,W92000004,Cymru,Wales,710,335,MULTIPOINT ((275475 197796))
gpmainsites_ogl.348,W98007,Practice 2 Fforestfach Medical Centre,0,CC310,Penderi,2.00003E+11,39102086,263626,195853,51.6448953,-3.9723856,7A3,W11000031,Bwrdd Iechyd Prifysgol Bae Abertawe,Swansea Bay University Health Board,W06000011,W02000180,W05001043,W01000762,W92000004,Cymru,Wales,711,336,MULTIPOINT ((263626 195853))
gpmainsites_ogl.349,W98008,Princess Street Surgery,0,CC308,Llwchwr,2.00003E+11,39102052,258590,198792,51.6700591,-4.0463115,7A3,W11000031,Bwrdd Iechyd Prifysgol Bae Abertawe,Swansea Bay University Health Board,W06000011,W02000172,W05001047,W01000774,W92000004,Cymru,Wales,712,337,MULTIPOINT ((258590 198792))
gpmainsites_ogl.350,W98010,Skewen Medical Centre,0,CC309,Neath,1.00101E+11,47707367,272805,197346,51.6604648,-3.8403419,7A3,W11000031,Bwrdd Iechyd Prifysgol Bae Abertawe,Swansea Bay University Health Board,W06000012,W02000208,W05001691,W01000912,W92000004,Cymru,Wales,713,338,MULTIPOINT ((272805 197346))
gpmainsites_ogl.351,W98012,Estuary Group Practice,2,CC308,Llwchwr,2.00003E+11,39101692,258893,196614,51.6505647,-4.0410531,7A3,W11000031,Bwrdd Iechyd Prifysgol Bae Abertawe,Swansea Bay University Health Board,W06000011,W02000179,W05001049,W01000777,W92000004,Cymru,Wales,714,339,MULTIPOINT ((258893 196614))
gpmainsites_ogl.352,W98013,Talybont Surgery,0,CC308,Llwchwr,2.00003E+11,39102286,258801,203958,51.7165319,-4.0453566,7A3,W11000031,Bwrdd Iechyd Prifysgol Bae Abertawe,Swansea Bay University Health Board,W06000011,W02000168,W05001062,W01000846,W92000004,Cymru,Wales,717,340,MULTIPOINT ((258801 203958))
gpmainsites_ogl.353,W98015,Mountain View Health Centre,0,CC306,CityHealth,10091615623,39101664,264804.6,194244.71,51.6307276,-3.954741,7A3,W11000031,Bwrdd Iechyd Prifysgol Bae Abertawe,Swansea Bay University Health Board,W06000011,W02000186,W05001066,W01000864,W92000004,Cymru,Wales,718,341,MULTIPOINT ((264804.6 194244.71))
gpmainsites_ogl.354,W98016,St Thomas Surgery,1,CC302,BayHealth,1.00101E+11,39102654,267457,193082,51.6209106,-3.916001,7A3,W11000031,Bwrdd Iechyd Prifysgol Bae Abertawe,Swansea Bay University Health Board,W06000011,W02000188,W05001065,W01000852,W92000004,Cymru,Wales,719,342,MULTIPOINT ((267457 193082))
gpmainsites_ogl.355,W98017,Afan Valley Group Practice,1,CC301,Afan,1.00101E+11,47701995,287456,198968,51.6781696,-3.6291426,7A3,W11000031,Bwrdd Iechyd Prifysgol Bae Abertawe,Swansea Bay University Health Board,W06000012,W02000427,W05001696,W01001990,W92000004,Cymru,Wales,721,343,MULTIPOINT ((287456 198968))
gpmainsites_ogl.357,W98020,Nicholl St Medical Centre,0,CC306,CityHealth,1.00101E+11,39101785,264989,192944,51.6190839,-3.951576,7A3,W11000031,Bwrdd Iechyd Prifysgol Bae Abertawe,Swansea Bay University Health Board,W06000011,W02000192,W05001041,W01000745,W92000004,Cymru,Wales,727,344,MULTIPOINT ((264989 192944))
gpmainsites_ogl.358,W98021,Sketty & Killay Medical Centres,1,CC302,BayHealth,2.00002E+11,39100703,262668,192729,51.6165899,-3.9849964,7A3,W11000031,Bwrdd Iechyd Prifysgol Bae Abertawe,Swansea Bay University Health Board,W06000011,W02000194,W05001064,W01000861,W92000004,Cymru,Wales,728,345,MULTIPOINT ((262668 192729))
gpmainsites_ogl.359,W98022,Cwmtawe Medical Group,2,CC307,Cwmtawe,10010057608,39101305,269323.89,201442.17,51.6964754,-3.8921766,7A3,W11000031,Bwrdd Iechyd Prifysgol Bae Abertawe,Swansea Bay University Health Board,W06000011,W02000169,W05001042,W01000754,W92000004,Cymru,Wales,730,346,MULTIPOINT ((269323.89 201442.17))
gpmainsites_ogl.360,W98023,The Grove Medical Centre,1,CC302,BayHealth,1.00101E+11,39102450,263947,192961,51.6189854,-3.9666247,7A3,W11000031,Bwrdd Iechyd Prifysgol Bae Abertawe,Swansea Bay University Health Board,W06000011,W02000191,W05001067,W01000874,W92000004,Cymru,Wales,733,347,MULTIPOINT ((263947 192961))
gpmainsites_ogl.361,W98024,Brunswick Health Centre,0,CC306,CityHealth,10010024169,39102253,264705,192749,51.6172633,-3.9556004,7A3,W11000031,Bwrdd Iechyd Prifysgol Bae Abertawe,Swansea Bay University Health Board,W06000011,W02000193,W05001041,W01000749,W92000004,Cymru,Wales,735,348,MULTIPOINT ((264705 192749))
gpmainsites_ogl.362,W98027,Kingsway Surgery,0,CC306,CityHealth,10010041037,39106336,265400.19,193145.73,51.6209951,-3.9457179,7A3,W11000031,Bwrdd Iechyd Prifysgol Bae Abertawe,Swansea Bay University Health Board,W06000011,W02000192,W05001041,W01001955,W92000004,Cymru,Wales,738,349,MULTIPOINT ((265400.19 193145.73))
gpmainsites_ogl.363,W98028,Practice 1 Fforestfach Medical Centre,0,CC310,Penderi,2.00003E+11,39102086,263626,195853,51.6448953,-3.9723856,7A3,W11000031,Bwrdd Iechyd Prifysgol Bae Abertawe,Swansea Bay University Health Board,W06000011,W02000180,W05001043,W01000762,W92000004,Cymru,Wales,739,350,MULTIPOINT ((263626 195853))
gpmainsites_ogl.364,W98030,Dulais Valley Primary Care Centre,0,CC311,Upper Valleys,10014160942,47715747,281064,207735,51.7556426,-3.7245437,7A3,W11000031,Bwrdd Iechyd Prifysgol Bae Abertawe,Swansea Bay University Health Board,W06000012,W02000200,W05001694,W01000965,W92000004,Cymru,Wales,741,351,MULTIPOINT ((281064 207735))
gpmainsites_ogl.365,W98031,Mount Surgery,0,CC301,Afan,2.00003E+11,47718372,277565,188590,51.5828314,-3.7684976,7A3,W11000031,Bwrdd Iechyd Prifysgol Bae Abertawe,Swansea Bay University Health Board,W06000012,W02000217,W05001702,W01000967,W92000004,Cymru,Wales,743,352,MULTIPOINT ((277565 188590))
gpmainsites_ogl.366,W98032,Fairfield Surgery,0,CC301,Afan,10023948760,47708782,274791.44,191243.74,51.6060707,-3.8094557,7A3,W11000031,Bwrdd Iechyd Prifysgol Bae Abertawe,Swansea Bay University Health Board,W06000012,W02000214,W05001679,W01000883,W92000004,Cymru,Wales,744,353,MULTIPOINT ((274791.44 191243.74))
gpmainsites_ogl.367,W98033,The Mumbles Medical Practice,1,CC302,BayHealth,1.00101E+11,39102549,261209,188796,51.5808904,-4.0044994,7A3,W11000031,Bwrdd Iechyd Prifysgol Bae Abertawe,Swansea Bay University Health Board,W06000011,W02000196,W05001070,W01000880,W92000004,Cymru,Wales,745,354,MULTIPOINT ((261209 188796))
gpmainsites_ogl.368,W98034,Ty'r Felin Surgery,0,CC308,Llwchwr,2.00003E+11,39100435,259230,198797,51.6702648,-4.0370648,7A3,W11000031,Bwrdd Iechyd Prifysgol Bae Abertawe,Swansea Bay University Health Board,W06000011,W02000172,W05001047,W01001991,W92000004,Cymru,Wales,747,355,MULTIPOINT ((259230 198797))
gpmainsites_ogl.369,W98035,Riverside Surgery,0,CC301,Afan,10023948764,47708782,274792.28,191243.6,51.6060697,-3.8094436,7A3,W11000031,Bwrdd Iechyd Prifysgol Bae Abertawe,Swansea Bay University Health Board,W06000012,W02000214,W05001679,W01000883,W92000004,Cymru,Wales,748,356,MULTIPOINT ((274792.28 191243.6))
gpmainsites_ogl.370,W98036,Victoria Gardens Surgery,0,CC309,Neath,1.00101E+11,47710347,275355,197334,51.6609288,-3.8034899,7A3,W11000031,Bwrdd Iechyd Prifysgol Bae Abertawe,Swansea Bay University Health Board,W06000012,W02000206,W05001704,W01000939,W92000004,Cymru,Wales,750,357,MULTIPOINT ((275355 197334))
gpmainsites_ogl.371,W98039,Greenhill Medical Centre,1,CC306,CityHealth,2.00003E+11,39101053,265709.88,194091.26,51.6295656,-3.9416103,7A3,W11000031,Bwrdd Iechyd Prifysgol Bae Abertawe,Swansea Bay University Health Board,W06000011,W02000192,W05001041,W01001955,W92000004,Cymru,Wales,752,358,MULTIPOINT ((265709.88 194091.26))
gpmainsites_ogl.372,W98040,Quays Medical Practice,0,CC309,Neath,10023950843,47709332,273623,193292,51.624217,-3.8270576,7A3,W11000031,Bwrdd Iechyd Prifysgol Bae Abertawe,Swansea Bay University Health Board,W06000012,W02000211,W05001685,W01000897,W92000004,Cymru,Wales,754,359,MULTIPOINT ((273623 193292))
gpmainsites_ogl.373,W98041,King's Surgery,0,CC301,Afan,10023948761,47708782,274787.38,191246.82,51.6060975,-3.8095154,7A3,W11000031,Bwrdd Iechyd Prifysgol Bae Abertawe,Swansea Bay University Health Board,W06000012,W02000214,W05001679,W01000883,W92000004,Cymru,Wales,755,360,MULTIPOINT ((274787.38 191246.82))
gpmainsites_ogl.374,W98043,Manselton Surgery,0,CC310,Penderi,2.00003E+11,39100788,264878,195203,51.6393566,-3.9540513,7A3,W11000031,Bwrdd Iechyd Prifysgol Bae Abertawe,Swansea Bay University Health Board,W06000011,W02000182,W05001044,W01000767,W92000004,Cymru,Wales,757,361,MULTIPOINT ((264878 195203))
gpmainsites_ogl.375,W98044,Strawberry Place Surgery,0,CC307,Cwmtawe,2.00003E+11,39102303,266849,198127,51.666103,-3.9266997,7A3,W11000031,Bwrdd Iechyd Prifysgol Bae Abertawe,Swansea Bay University Health Board,W06000011,W02000175,W05001055,W01000813,W92000004,Cymru,Wales,758,362,MULTIPOINT ((266849 198127))
gpmainsites_ogl.376,W98045,Gower Medical Practice,1,CC302,BayHealth,2.00003E+11,39101708,246195,187547,51.5657695,-4.2204779,7A3,W11000031,Bwrdd Iechyd Prifysgol Bae Abertawe,Swansea Bay University Health Board,W06000011,W02000197,W05001048,W01000775,W92000004,Cymru,Wales,759,363,MULTIPOINT ((246195 187547))
gpmainsites_ogl.377,W98046,Vale of Neath Practice,0,CC311,Upper Valleys,10094264400,47718692,286762,205832,51.7397207,-3.6414071,7A3,W11000031,Bwrdd Iechyd Prifysgol Bae Abertawe,Swansea Bay University Health Board,W06000012,W02000201,W05001683,W01000925,W92000004,Cymru,Wales,761,364,MULTIPOINT ((286762 205832))
gpmainsites_ogl.378,W98048,Tabernacle Surgery,0,CC309,Neath,1.00101E+11,47707372,272755,197229,51.6594021,-3.8410218,7A3,W11000031,Bwrdd Iechyd Prifysgol Bae Abertawe,Swansea Bay University Health Board,W06000012,W02000208,W05001691,W01000913,W92000004,Cymru,Wales,763,365,MULTIPOINT ((272755 197229))
gpmainsites_ogl.379,W98049,Uplands Surgery,1,CC302,BayHealth,10010023403,39102207,263624.81,192886.04,51.6182338,-3.9712465,7A3,W11000031,Bwrdd Iechyd Prifysgol Bae Abertawe,Swansea Bay University Health Board,W06000011,W02000191,W05001067,W01000870,W92000004,Cymru,Wales,764,366,MULTIPOINT ((263624.81 192886.04))
gpmainsites_ogl.380,W98053,University Health Centre,0,CC302,BayHealth,10010061489,39106548,262926.08,192018.08,51.6102644,-3.9809931,7A3,W11000031,Bwrdd Iechyd Prifysgol Bae Abertawe,Swansea Bay University Health Board,W06000011,W02000194,W05001064,W01000861,W92000004,Cymru,Wales,769,367,MULTIPOINT ((262926.08 192018.08))
gpmainsites_ogl.381,W98055,Kings Road Surgery,0,CC302,BayHealth,10010022312,39101385,261235,187999,51.573735,-4.0038092,7A3,W11000031,Bwrdd Iechyd Prifysgol Bae Abertawe,Swansea Bay University Health Board,W06000011,W02000198,W05001056,W01000825,W92000004,Cymru,Wales,770,368,MULTIPOINT ((261235 187999))
gpmainsites_ogl.382,W98056,Harbourside Health Centre,1,CC306,CityHealth,10010063532,39101412,266665.83,193071.36,51.6206281,-3.9274184,7A3,W11000031,Bwrdd Iechyd Prifysgol Bae Abertawe,Swansea Bay University Health Board,W06000011,W02000188,W05001068,W01001996,W92000004,Cymru,Wales,771,369,MULTIPOINT ((266665.83 193071.36))
gpmainsites_ogl.383,W98057,SA1 Medical Centre,1,CC306,CityHealth,10010063533,39101412,266665.83,193071.36,51.6206281,-3.9274184,7A3,W11000031,Bwrdd Iechyd Prifysgol Bae Abertawe,Swansea Bay University Health Board,W06000011,W02000188,W05001068,W01001996,W92000004,Cymru,Wales,773,370,MULTIPOINT ((266665.83 193071.36))
gpmainsites_ogl.384,W98608,Abertawe Medical Partnership,1,CC306,CityHealth,1.00101E+11,39102253,264822,192828,51.6180013,-3.953942,7A3,W11000031,Bwrdd Iechyd Prifysgol Bae Abertawe,Swansea Bay University Health Board,W06000011,W02000191,W05001041,W01000747,W92000004,Cymru,Wales,777,371,MULTIPOINT ((264822 192828))